id,name,latitude,longitude,address
72,W 52 St & 11 Ave,40.76727216,-73.99392888,"Citi Bike - W 52 St / 11 Ave, West 52nd Street, Theater District, Manhattan Community Board 4, Manhattan, New York County, New York, 10019, United States"
72,W 52 St & 11 Ave,40.767,-73.995,"609, West 51st Street, Manhattan Community Board 4, Manhattan, New York County, New York, 10019, United States"
79,Franklin St & W Broadway,40.71911552,-74.00666661,"Citi Bike - Franklin St & W Broadway, Franklin Street, Tribeca, Manhattan Community Board 1, Manhattan, New York County, New York, 10005, United States"
79,Franklin St & W Broadway,40.719,-74.007,"Franklin Street, Varick Street, Tribeca, Manhattan Community Board 1, Manhattan, New York County, New York, 10014, United States"
82,St James Pl & Pearl St,40.71117416,-74.00016545,"Citi Bike - Saint James Place & Pearl Street, Pearl Street, Two Bridges, Manhattan Community Board 3, Manhattan, New York County, New York, 10038, United States"
82,St James Pl & Pearl St,40.71,-74.001,"Pearl Street, Two Bridges, Manhattan Community Board 3, Manhattan, New York County, New York, 10038, United States"
116,W 17 St & 8 Ave,40.74177603,-74.00149746,"Citi Bike - W 17 St & 8 Ave, West 17th Street, Chelsea, Manhattan, New York County, New York, 10011, United States"
116,W 17 St & 8 Ave,40.743,-74.001,"310, West 19th Street, Chelsea, Manhattan, New York County, New York, 10011, United States"
127,Barrow St & Hudson St,40.73172428,-74.00674436,"Citi Bike - Barrow St & Hudson St, Barrow Street, West Village, Manhattan Community Board 2, Manhattan, New York County, New York, 10014, United States"
128,MacDougal St & Prince St,40.72710258,-74.00297088,"Citi Bike - MacDougal St & Prince St, MacDougal Street, University Village, SoHo, Manhattan, New York County, New York, 10012, United States"
146,Hudson St & Reade St,40.71625008,-74.0091059,"Citi Bike - Hudson Street & Reade Street, Hudson Street, Tribeca, Manhattan Community Board 1, Manhattan, New York County, New York, 10014, United States"
146,Hudson St & Reade St,40.716,-74.01,"155, Chambers Street, Tribeca, Manhattan Community Board 1, Manhattan, New York County, New York, 10013, United States"
150,E 2 St & Avenue C,40.7208736,-73.98085795,"Citi Bike - E 2 St & Avenue C, East 2nd Street, East Village, Manhattan Community Board 3, Manhattan, New York County, New York, 10002-1013, United States"
150,E 2 St & Avenue C,40.722,-73.98,"42, Avenue C, East Village, Manhattan Community Board 3, Manhattan, New York County, New York, 10009, United States"
151,Cleveland Pl & Spring St,40.722103786686034,-73.99724900722504,"Petrosino Square Park, Kenmare Street, Manhattan Community Board 2, Manhattan, New York County, New York, 10012-3332, United States"
151,Cleveland Pl & Spring St,40.722,-73.998,"216, Lafayette Street, Manhattan Community Board 2, Manhattan, New York County, New York, 10012, United States"
152,Warren St & W Broadway,40.71473993,-74.00910627,"Citi Bike - Warren St & Church St, Warren Street, Tribeca, Manhattan Community Board 1, Manhattan, New York County, New York, 10007, United States"
161,LaGuardia Pl & W 3 St,40.72917025,-73.99810231,"New York University, West Houston Street, Manhattan Community Board 2, Manhattan, New York County, New York, 10012, United States"
161,LaGuardia Pl & W 3 St,40.728,-73.998,"New York University, West Houston Street, Manhattan Community Board 2, Manhattan, New York County, New York, 10012, United States"
161,LaGuardia Pl & W 3 St [temporarily removed],40.72917025,-73.99810231,"New York University, West Houston Street, Manhattan Community Board 2, Manhattan, New York County, New York, 10012, United States"
164,E 47 St & 2 Ave,40.75323098,-73.97032517,"Citi bike - E 47 St & 2 Ave, East 47th Street, Turtle Bay, Manhattan Community Board 6, Manhattan, New York County, New York, 10017, United States"
167,E 39 St & 3 Ave,40.7489006,-73.97604882,"Citi Bike - E 39 St & 3 Ave, East 39th Street, Murray Hill, Manhattan Community Board 6, Manhattan, New York County, New York, 10016, United States"
167,E 39 St & 3 Ave,40.749,-73.977,"Permanent Mission of the Republic of Guinea to the United Nations, 140, East 39th Street, Murray Hill, Manhattan Community Board 6, Manhattan, New York County, New York, 10016, United States"
168,W 18 St & 6 Ave,40.73971301,-73.99456405,"Citi Bike - W 18 St & 6 Ave, West 18th Street, Manhattan Community Board 5, Manhattan, New York County, New York, 10011, United States"
173,Broadway & W 49 St,40.76068327096592,-73.9845272898674,"Crowne Plaza Times Square, 1605, Broadway, Theater District, Manhattan Community Board 5, Manhattan, New York County, New York, 10019, United States"
173,Broadway & W 49 St,40.761,-73.986,"The Ritz Plaza, 235, West 48th Street, Theater District, Manhattan Community Board 5, Manhattan, New York County, New York, 10036, United States"
174,E 25 St & 1 Ave,40.7381765,-73.97738662,"Brookdale Campus, 425, East 25th Street, Kips Bay, Manhattan Community Board 6, Manhattan, New York County, New York, 10010, United States"
174,E 25 St & 1 Ave,40.737,-73.977,"Veteran Affairs New York Harbor Healthcare System, Asser Levy Place, Kips Bay, Manhattan Community Board 6, Manhattan, New York County, New York, 10016, United States"
195,Liberty St & Broadway,40.70905623,-74.01043382,"Citi Bike - Liberty St & Broadway, Liberty Street, Financial District, Manhattan Community Board 1, Manhattan, New York County, New York, 10005, United States"
212,W 16 St & The High Line,40.74334935,-74.00681753,"Citi Bike - W 16 St & The High Line, West 16th Street, Chelsea District, Manhattan, New York County, New York, 10011, United States"
212,W 16 St & The High Line,40.743,-74.007,"Chelsea Market, 75, 9th Avenue, Chelsea District, Manhattan, New York County, New York, 10011, United States"
223,W 13 St & 7 Ave,40.73781509,-73.99994661,"Citi Bike - W 13 St & 7 Ave, West 13th Street, West Village, Manhattan Community Board 2, Manhattan, New York County, New York, 10011, United States"
224,Spruce St & Nassau St,40.71146364,-74.00552427,"Citi Bike - Spruce Street & Nassau Street, Spruce Street, Financial District, Manhattan Community Board 1, Manhattan, New York County, New York, 10038, United States"
228,E 48 St & 3 Ave,40.7546011026,-73.971878855,"The Buchanan, 160, East 48th Street, Turtle Bay, Manhattan Community Board 6, Manhattan, New York County, New York, 10017, United States"
229,Great Jones St,40.72743423,-73.99379025,"Citi Bike - Great Jones St, Great Jones Street, NoHo, Manhattan, New York County, New York, 10012, United States"
236,St Marks Pl & 2 Ave,40.7284186,-73.98713956,"Citi Bike - St Marks Pl & 2 Ave, Saint Mark's Place, East Village, Manhattan Community Board 3, Manhattan, New York County, New York, 10003, United States"
236,St Marks Pl & 2 Ave,40.728,-73.986,"69, Saint Mark's Place, East Village, Manhattan Community Board 3, Manhattan, New York County, New York, 10003, United States"
237,E 11 St & 2 Ave,40.73047309,-73.98672378,"245, East 11th Street, East Village, Manhattan Community Board 3, Manhattan, New York County, New York, 10003, United States"
238,Bank St & Washington St,40.7361967,-74.00859207,"Citi Bike - Bank St & Washington St, Bank Street, West Village, Manhattan Community Board 2, Manhattan, New York County, New York, 10014, United States"
238,Bank St & Washington St,40.737,-74.01,"West Street, West Village, Meatpacking District, Manhattan, New York County, New York, 10014-3621, United States"
247,Perry St & Bleecker St,40.73535398,-74.00483091,"Citi Bike - Perry St & Bleecker St, Perry Street, West Village, Manhattan Community Board 2, Manhattan, New York County, New York, 10014, United States"
248,Laight St & Hudson St,40.72185379,-74.00771779,"Citi Bike - Laight St & Hudson St, Laight Street, Tribeca, Manhattan Community Board 1, Manhattan, New York County, New York, 10013, United States"
249,Harrison St & Hudson St,40.71870987,-74.0090009,"Citi Bike - Harrison St & Hudson St, Harrison Street, Tribeca, Manhattan Community Board 1, Manhattan, New York County, New York, 10013, United States"
249,Harrison St & Hudson St,40.719,-74.01,"361, Greenwich Street, Tribeca, Manhattan Community Board 1, Manhattan, New York County, New York, 10013, United States"
250,Lafayette St & Jersey St,40.72456089,-73.99565293,"Citi Bike - Lafayette St & Jersey St, Lafayette Street, Manhattan Community Board 2, Manhattan, New York County, New York, 10012-3332, United States"
251,Mott St & Prince St,40.72317958,-73.99480012,"Citi Bike - Mott St & Prince St, Mott Street, Little Italy, Manhattan, New York County, New York, 10012, United States"
251,Mott St & Prince St,40.722,-73.995,"21, Spring Street, Manhattan Community Board 2, Manhattan, New York County, New York, 10012, United States"
252,MacDougal St & Washington Sq,40.73226398,-73.99852205,"Citi Bike - MacDougal St & Washington Sq, Washington Square North, Washington Square Village, Manhattan Community Board 2, Manhattan, New York County, New York, 10011-6832, United States"
254,W 11 St & 6 Ave,40.73532427,-73.99800419,"Citi Bike - W 11 St & 6 Ave, West 11th Street, Washington Square Village, Manhattan Community Board 2, Manhattan, New York County, New York, 10014, United States"
257,Lispenard St & Broadway,40.71939226,-74.00247214,"Citi Bike - Lispenard St & Broadway, Lispenard Street, Tribeca, Manhattan Community Board 1, Manhattan, New York County, New York, 10013, United States"
257,Lispenard St & Broadway,40.719,-74.001,"Bonsai Kakig√∂ri, 265, Canal Street, SoHo, Manhattan, New York County, New York, 10013, United States"
259,South St & Whitehall St,40.70122128,-74.01234218,"Battery Maritime Building, 10, South Street, Financial District, Manhattan Community Board 1, Manhattan, New York County, New York, 10004, United States"
259,South St & Whitehall St,40.701,-74.013,"Staten Island Ferry Whitehall Terminal, 4, South Street, Financial District, Manhattan Community Board 1, Manhattan, New York County, New York, 10004, United States"
260,Broad St & Bridge St,40.70365182,-74.01167797,"Citi Bike - Broad St & Bridge St, Bridge Street, Financial District, Manhattan Community Board 1, Manhattan, New York County, New York, 10004, United States"
260,Broad St & Bridge St,40.704,-74.013,"1 Whitehall Street, 1, Whitehall Street, Financial District, Manhattan Community Board 1, Manhattan, New York County, New York, 10004, United States"
264,Maiden Ln & Pearl St,40.70706456,-74.00731853,"Citi Bike - Maiden Ln & Pearl St, Maiden Lane, Financial District, Manhattan Community Board 1, Manhattan, New York County, New York, 10038, United States"
265,Stanton St & Chrystie St,40.72229346,-73.99147535,"Citi Bike - Stanton St & Chrystie St, Stanton Street, Lower East Side, Manhattan Community Board 3, Manhattan, New York County, New York, 10012-3332, United States"
266,Avenue D & E 8 St,40.72368361,-73.97574813,"Citi Bike - Avenue D & E 8 St, East 8th Street, East Village, Manhattan Community Board 3, Manhattan, New York County, New York, 10009:10010, United States"
266,Avenue D & E 8 St (home location),40.72368361,-73.97574813,"Citi Bike - Avenue D & E 8 St, East 8th Street, East Village, Manhattan Community Board 3, Manhattan, New York County, New York, 10009:10010, United States"
267,Broadway & W 36 St,40.75097711,-73.98765428,"Citi Bike - Broadway & W 36 St, Broadway, Garment District, Manhattan Community Board 5, Manhattan, New York County, New York, 10019, United States"
267,Broadway & W 36 St,40.752,-73.989,"153, West 36th Street, Garment District, Manhattan Community Board 5, Manhattan, New York County, New York, 10018, United States"
268,Howard St & Centre St,40.71910537,-73.99973337,"Citi Bike - Howard St & Centre St, Howard Street, Manhattan Community Board 2, Manhattan, New York County, New York, 10013, United States"
268,Howard St & Centre St,40.719,-74.001,"Bonsai Kakig√∂ri, 265, Canal Street, SoHo, Manhattan, New York County, New York, 10013, United States"
276,Duane St & Greenwich St,40.71748752,-74.0104554,"Citi Bike - Duane St & Greenwich St, Duane Street, Tribeca, Manhattan Community Board 1, Manhattan, New York County, New York, 10007, United States"
279,Peck Slip & Front St,40.707873,-74.00167,"Citi Bike - Peck Slip & Front St, Peck Slip, Financial District, Manhattan Community Board 1, Manhattan, New York County, New York, 10038, United States"
280,E 10 St & 5 Ave,40.73331967,-73.99510132,"Citi Bike - E 10 St & 5 Ave, East 10th Street, Washington Square Village, Manhattan Community Board 2, Manhattan, New York County, New York, 10009, United States"
280,E 10 St & 5 Ave,40.734,-73.995,"1, East 11th Street, Washington Square Village, Manhattan Community Board 2, Manhattan, New York County, New York, 10003, United States"
281,Grand Army Plaza & Central Park S,40.7643971,-73.97371465,"Citi Bike - Grand Army Plaza & Central Park S, Grand Army Plaza, Midtown, Manhattan Community Board 5, Manhattan, New York County, New York, 10153, United States"
281,Grand Army Plaza & Central Park S,40.764,-73.974,"Pulitzer Fountain, Grand Army Plaza, Midtown, Manhattan Community Board 5, Manhattan, New York County, New York, 10153, United States"
284,Greenwich Ave & 8 Ave,40.7390169121,-74.0026376103,"Citi Bike - Greenwich Ave & 8 Ave, Greenwich Avenue, West Village, Manhattan Community Board 2, Manhattan, New York County, New York, 10014, United States"
284,Greenwich Ave & 8 Ave,40.74,-74.004,"326, West 14th Street, West Village, Manhattan Community Board 2, Manhattan, New York County, New York, 10014, United States"
285,Broadway & E 14 St,40.73454567,-73.99074142,"Citi Bike - Broadway & E 14 St, Broadway, East Village, Manhattan Community Board 2, Manhattan, New York County, New York, 10003, United States"
285,Broadway & E 14 St,40.734,-73.992,"37, East 12th Street, Washington Square Village, Manhattan Community Board 2, Manhattan, New York County, New York, 10003, United States"
291,Madison St & Montgomery St,40.713126,-73.984844,"Citi Bike - Madison Street & Montgomery Street, Madison Street, Lower East Side, Manhattan Community Board 3, Manhattan, New York County, New York, 10002, United States"
293,Lafayette St & E 8 St,40.73020660529954,-73.99102628231049,"Astor Place, Lafayette Street, Manhattan Community Board 2, Manhattan, New York County, New York, 10003, United States"
293,Lafayette St & E 8 St,40.731,-73.992,"8th Street-New York University, East 8th Street, Washington Square Village, NoHo, Manhattan, New York County, New York, 10003, United States"
295,Pike St & E Broadway,40.71406667,-73.99293911,"Citi Bike - Pike St & E Broadway, Pike Street, Manhattan Community Board 3, Manhattan, New York County, New York, 10002, United States"
296,Division St & Bowery,40.71413089,-73.9970468,"Citi Bike - Division Street & Bowery, Division Street, Manhattan Community Board 3, Manhattan, New York County, New York, 10002, United States"
296,Division St & Bowery (old),40.71413089,-73.9970468,"Citi Bike - Division Street & Bowery, Division Street, Manhattan Community Board 3, Manhattan, New York County, New York, 10002, United States"
297,E 15 St & 3 Ave,40.734232,-73.986923,"Citi Bike - E 15 St & 3 Ave, East 15th Street, Union Square, Manhattan Community Board 6, Manhattan, New York County, New York, 10003, United States"
297,E 15 St & 3 Ave,40.734,-73.986,"207, East 15th Street, Manhattan Community Board 6, Manhattan, New York County, New York, 10003, United States"
301,E 2 St & Avenue B,40.72217444,-73.98368779,"Citi Bike - E 2 St & Avenue B, East 2nd Street, East Village, Manhattan Community Board 3, Manhattan, New York County, New York, 10002-1013, United States"
301,E 2 St & Avenue B,40.722,-73.983,"214, East 2nd Street, East Village, Manhattan Community Board 3, Manhattan, New York County, New York, 10009, United States"
302,Avenue D & E 3 St,40.72082834,-73.97793172,"Citi Bike - Avenue D & E 3 St, Avenue D, East Village, Manhattan Community Board 3, Manhattan, New York County, New York, 10009, United States"
303,Mercer St & Spring St,40.72362738,-73.99949601,"105, Mercer Street, Manhattan Community Board 2, Manhattan, New York County, New York, 10012, United States"
304,Broadway & Battery Pl,40.70463334,-74.01361706,"Citi Bike - Broadway & Battery Pl, Battery Place, Financial District, Manhattan Community Board 1, Manhattan, New York County, New York, 10275, United States"
305,E 58 St & 3 Ave,40.76095756,-73.96724467,"Citi Bike - E 58 St & 3 Ave, East 58th Street, Manhattan Community Board 6, Manhattan, New York County, New York, 10022, United States"
305,E 58 St & 3 Ave,40.761,-73.968,"Architects & Designers Building, East 58th Street, Manhattan Community Board 6, Manhattan, New York County, New York, 10022, United States"
307,Canal St & Rutgers St,40.71427487,-73.98990025,"Citi Bike - Canal St & Seward Pk, Canal Street, Lower East Side, Manhattan Community Board 3, Manhattan, New York County, New York, 10002, United States"
308,St James Pl & Oliver St,40.71307916,-73.99851193,"Citi Bike - St James Pl & Oliver St, Pearl Street, Lower Manhattan, Manhattan Community Board 3, Manhattan, New York County, New York, 10038, United States"
308,St James Pl & Oliver St,40.713,-73.998,"2, Oliver Street, Manhattan Community Board 3, Manhattan, New York County, New York, 10038, United States"
309,Murray St & West St,40.7149787,-74.013012,"Citi Bike - Murray St & West St, Murray Street, Tribeca, Manhattan Community Board 1, Manhattan, New York County, New York, 10282, United States"
311,Norfolk St & Broome St,40.7172274,-73.98802084,"Citi Bike - Norfolk St & Broome St, Norfolk Street, Lower East Side, Manhattan Community Board 3, Manhattan, New York County, New York, 10002, United States"
311,Norfolk St & Broome St,40.716,-73.989,"365, Grand Street, Lower East Side, Manhattan Community Board 3, Manhattan, New York County, New York, 10002, United States"
312,Allen St & Stanton St,40.722055,-73.989111,"Citi Bike - Allen St & E Houston St, Allen Street, Lower East Side, Manhattan Community Board 3, Manhattan, New York County, New York, 10002, United States"
315,South St & Gouverneur Ln,40.70355377,-74.00670227,"Pier 11, FDR Drive, Financial District, Manhattan Community Board 1, Manhattan, New York County, New York, 10041, United States"
316,Fulton St & William St,40.70955958,-74.00653609,"Fulton Street, Theater Alley, Financial District, Manhattan Community Board 1, Manhattan, New York County, New York, 10000, United States"
316,Fulton St & William St,40.71,-74.007,"119, Fulton Street, Financial District, Manhattan Community Board 1, Manhattan, New York County, New York, 10038, United States"
317,E 6 St & Avenue B,40.72453734,-73.98185424,"Citi Bike - E 6 St & Avenue B, East 6th Street, East Village, Manhattan Community Board 3, Manhattan, New York County, New York, 10009, United States"
319,Fulton St & Broadway,40.711066,-74.009447,"Citi Bike - Fulton St & Broadway, Fulton Street, Financial District, Manhattan Community Board 1, Manhattan, New York County, New York, 10038, United States"
319,Fulton St & Broadway,40.71,-74.01,"175, Broadway, Financial District, Manhattan Community Board 1, Manhattan, New York County, New York, 10007, United States"
320,Leonard St & Church St,40.717571,-74.005549,"Citi Bike - Leonard St & Church St, Leonard Street, Tribeca, Manhattan Community Board 1, Manhattan, New York County, New York, 10013, United States"
320,Leonard St & Church St,40.719,-74.007,"Franklin Street, Varick Street, Tribeca, Manhattan Community Board 1, Manhattan, New York County, New York, 10014, United States"
325,E 19 St & 3 Ave,40.73624527,-73.98473765,"Citi Bike - E 19 St & 3 Ave, East 19th Street, Manhattan Community Board 6, Manhattan, New York County, New York, 10003, United States"
326,E 11 St & 1 Ave,40.72953837,-73.98426726,"Citi Bike - E 11 St & 1 Ave, East 11th Street, East Village, Manhattan Community Board 3, Manhattan, New York County, New York, 10009, United States"
327,Vesey Pl & River Terrace,40.7153379,-74.01658354,"Irish Hunger Memorial, North End Avenue, Battery Park City, Manhattan Community Board 1, Manhattan, New York County, New York, 10282, United States"
327,Vesey Pl & River Terrace,40.716,-74.016,"Murray Street, Battery Park City, Manhattan Community Board 1, Manhattan, New York County, New York, 10282, United States"
328,Watts St & Greenwich St,40.72405549,-74.00965965,"Citi Bike - Watts St & Greenwich St, Watts Street, Tribeca, Manhattan Community Board 1, Manhattan, New York County, New York, 10005, United States"
330,Reade St & Broadway,40.71450451,-74.00562789,"Citi Bike - Reade St & Broadway, Reade Street, Lower Manhattan, Manhattan Community Board 1, Manhattan, New York County, New York, 10013, United States"
331,Pike St & Monroe St,40.71173107,-73.99193043,"65-75, Pike Street, Two Bridges, Manhattan Community Board 3, Manhattan, New York County, New York, 10002, United States"
331,Pike St & Monroe St,40.713,-73.992,"Public School 2, 122, Henry Street, Two Bridges, Manhattan Community Board 3, Manhattan, New York County, New York, 10002, United States"
332,Cherry St,40.71219906,-73.97948148,"Citi Bike - Cherry Street @ Corlears Hook Park, Cherry Street, Lower East Side, Manhattan Community Board 3, Manhattan, New York County, New York, 10002, United States"
332,Cherry St,40.713,-73.98,"22, Jackson Street, Lower East Side, Manhattan Community Board 3, Manhattan, New York County, New York, 10002, United States"
334,W 20 St & 7 Ave,40.74238787,-73.99726235,"Citi Bike - W 20 St & 7 Ave, West 20th Street, Chelsea District, Manhattan, New York County, New York, 10011, United States"
334,W 20 St & 7 Ave,40.743,-73.998,"224, West 21st Street, Chelsea District, Manhattan, New York County, New York, 10011, United States"
335,Washington Pl & Broadway,40.72903917,-73.99404649,"New York University, West Houston Street, Manhattan Community Board 2, Manhattan, New York County, New York, 10012, United States"
335,Washington Pl & Broadway,40.728,-73.995,"Merchants Building, West 3rd Street, Greenwich Village, Manhattan, New York County, New York, 10012, United States"
336,Sullivan St & Washington Sq,40.73047747,-73.99906065,"New York University, West Houston Street, Manhattan Community Board 2, Manhattan, New York County, New York, 10012, United States"
337,Old Slip & Front St,40.7037992,-74.00838676,"Citi Bike - Old Slip & Front St, Old Slip, Financial District, Manhattan Community Board 1, Manhattan, New York County, New York, 10005, United States"
339,Avenue D & E 12 St,40.72580614,-73.97422494,"Citi Bike - Avenue D & E 12 St, Avenue D, East Village, Manhattan Community Board 3, Manhattan, New York County, New York, 10009:10010, United States"
340,Madison St & Clinton St,40.71269042,-73.98776323,"Citi Bike, Madison Street, Two Bridges, Manhattan Community Board 3, Manhattan, New York County, New York, 10002, United States"
341,Stanton St & Mangin St,40.71782143,-73.97628939,"Baruch Playground, Stanton Street, Lower East Side, Manhattan Community Board 3, Manhattan, New York County, New York, 10002, United States"
342,Columbia St & Rivington St,40.71739973,-73.98016555,"Citi Bike - Columbia St & Rivington St, Columbia Street, Lower East Side, Manhattan Community Board 3, Manhattan, New York County, New York, 10002, United States"
346,Bank St & Hudson St,40.73652889,-74.00618026,"Citi Bike - Bank St & Hudson St, Bank Street, West Village, Manhattan Community Board 2, Manhattan, New York County, New York, 10014, United States"
346,Bank St & Hudson St,40.737,-74.007,"20, Bethune Street, West Village, Manhattan Community Board 2, Manhattan, New York County, New York, 10014, United States"
347,Greenwich St & W Houston St,40.728846,-74.008591,"Citi Bike, Greenwich Street, Hudson Square, Manhattan Community Board 2, Manhattan, New York County, New York, 10014, United States"
347,Greenwich St & W Houston St,40.728,-74.01,"500, Washington Street, Hudson Square, Manhattan Community Board 2, Manhattan, New York County, New York, 10013, United States"
349,Rivington St & Ridge St,40.71850211,-73.98329859,"Citi Bike - Rivington St & Ridge St, Rivington Street, Lower East Side, Manhattan Community Board 3, Manhattan, New York County, New York, 10002, United States"
350,Clinton St & Grand St,40.71559509,-73.9870295,"Citi Bike, Clinton Street, Lower East Side, Manhattan Community Board 3, Manhattan, New York County, New York, 10002, United States"
351,Front St & Maiden Ln,40.70530954,-74.00612572,"Citi Bike - Front St & Maiden Ln, Pine Street, Financial District, Manhattan Community Board 1, Manhattan, New York County, New York, 10045, United States"
355,Bayard St & Baxter St,40.71602118,-73.99974372,"Citi Bike - Bayard Street & Baxter Street, Bayard Street, Chinatown, Manhattan, New York County, New York, 10013, United States"
356,Bialystoker Pl & Delancey St,40.71622644,-73.98261206,"Citi Bike - Willett St & Delancey St, Willett Street, Lower East Side, Manhattan Community Board 3, Manhattan, New York County, New York, 10002, United States"
357,E 11 St & Broadway,40.73261787,-73.99158043,"Citi Bike - E 11 St & Broadway, East 11th Street, Washington Square Village, Manhattan Community Board 2, Manhattan, New York County, New York, 10003, United States"
358,Christopher St & Greenwich St,40.73291553,-74.00711384,"Citi Bike - Christopher St & Greenwich St, Christopher Street, West Village, Manhattan Community Board 2, Manhattan, New York County, New York, 10014, United States"
358,Christopher St & Greenwich St,40.734,-74.007,"705, Greenwich Street, West Village, Manhattan Community Board 2, Manhattan, New York County, New York, 10014, United States"
359,E 47 St & Park Ave,40.75510267,-73.97498696,"Grand Central Terminal, Vanderbilt Avenue, Manhattan Community Board 5, Manhattan, New York County, New York, 10017, United States"
359,E 47 St & Park Ave,40.755,-73.974,"Grand Central Terminal, Vanderbilt Avenue, Manhattan Community Board 5, Manhattan, New York County, New York, 10017, United States"
360,William St & Pine St,40.70717936,-74.00887308,"Citi Bike, Chase Manhattan Plaza, Financial District, Manhattan Community Board 1, Manhattan, New York County, New York, 10045, United States"
361,Allen St & Hester St,40.71605866,-73.99190759,"Citi Bike - Allen St & Hester St, Allen Street, Lower East Side, Manhattan Community Board 3, Manhattan, New York County, New York, 10002, United States"
361,Allen St & Hester St,40.716,-73.992,"Allen Street, Chinatown, Manhattan, New York County, New York, 10002, United States"
362,Broadway & W 37 St,40.75172632,-73.98753523,"Citi Bike - Broadway & W 37 St, Broadway, Garment District, Manhattan Community Board 5, Manhattan, New York County, New York, 10019, United States"
362,Broadway & W 37 St,40.752,-73.989,"153, West 36th Street, Garment District, Manhattan Community Board 5, Manhattan, New York County, New York, 10018, United States"
363,West Thames St,40.70834698,-74.01713445,"Citi Bike - West Thames St, West Thames Street, Battery Park City, Manhattan Community Board 1, Manhattan, New York County, New York, 10280, United States"
367,E 53 St & Lexington Ave,40.75828065,-73.97069431,"East 53rd Street & Lexington Avenue at Northeast Corner, East 53rd Street, Turtle Bay, Manhattan Community Board 6, Manhattan, New York County, New York, 10152, United States"
368,Carmine St & 6 Ave,40.73038599,-74.00214988,"Citi Bike - Carmine St & 6 Ave, Carmine Street, West Village, Manhattan Community Board 2, Manhattan, New York County, New York, 10014, United States"
369,Washington Pl & 6 Ave,40.73224119,-74.00026394,"Citi Bike - Washington Pl & 6 Ave, West Washington Place, Washington Square Village, Manhattan Community Board 2, Manhattan, New York County, New York, 10011, United States"
376,John St & William St,40.70862144,-74.00722156,"Citi Bike - John St & William St, John Street, Financial District, Manhattan Community Board 1, Manhattan, New York County, New York, 10038, United States"
377,6 Ave & Canal St,40.72243797,-74.00566443,"Citi Bike - 6 Ave & Canal St, Sullivan Street, Hudson Square, Manhattan Community Board 2, Manhattan, New York County, New York, 10005, United States"
379,W 31 St & 7 Ave,40.749156,-73.9916,"PNC Bank, West 31st Street, Chelsea District, Manhattan, New York County, New York, 10001, United States"
379,W 31 St & 7 Ave,40.749,-73.992,"Stewart Hotel, 371, 7th Avenue, Chelsea District, Manhattan, New York County, New York, 10001, United States"
379,W 31 St & 7 Ave [temporarily removed],40.749156,-73.9916,"PNC Bank, West 31st Street, Chelsea District, Manhattan, New York County, New York, 10001, United States"
380,W 4 St & 7 Ave S,40.73401143,-74.00293877,"Citi bike - W 4 St & 7 Ave S, West 4th Street, West Village, Manhattan Community Board 2, Manhattan, New York County, New York, 10014, United States"
380,W 4 St & 7 Ave S,40.734,-74.004,"202, West 10th Street, West Village, Manhattan Community Board 2, Manhattan, New York County, New York, 10014, United States"
382,University Pl & E 14 St,40.73492695,-73.99200509,"citibike, University Place, Union Square, Manhattan Community Board 2, Manhattan, New York County, New York, 10003, United States"
382,University Pl & E 14 St (old),40.73492695,-73.99200509,"citibike, University Place, Union Square, Manhattan Community Board 2, Manhattan, New York County, New York, 10003, United States"
383,Greenwich Ave & Charles St,40.735238,-74.000271,"Citi Bike - Greenwich Ave & Charles St, Greenwich Avenue, West Village, Manhattan Community Board 2, Manhattan, New York County, New York, 10014, United States"
385,E 55 St & 2 Ave,40.75797322,-73.96603308,"Citi Bike - E 55 St / 2 Ave, East 55th Street, Manhattan Community Board 6, Manhattan, New York County, New York, 10022, United States"
386,Centre St & Worth St,40.71494807,-74.00234482,"Citi Bike - Centre Street & Worth Street, Centre Street, Lower Manhattan, Manhattan Community Board 1, Manhattan, New York County, New York, 10278, United States"
387,Centre St & Chambers St,40.71273266,-74.0046073,"Brooklyn Bridge-City Hall (4,5,6,<6>), Centre Street, Lower Manhattan, Manhattan Community Board 1, Manhattan, New York County, New York, 10000, United States"
388,W 26 St & 10 Ave,40.749717753,-74.002950346,"Citi Bike - W 26 St & 10 Ave, West 26th Street, Chelsea District, Manhattan, New York County, New York, 10001, United States"
388,W 26 St & 10 Ave,40.749,-74.004,"510, West 25th Street, Chelsea District, Manhattan, New York County, New York, 10001, United States"
393,E 5 St & Avenue C,40.72299208,-73.97995466,"Citi Bike - E 5 St & Avenue C, East 5th Street, East Village, Manhattan Community Board 3, Manhattan, New York County, New York, 10009, United States"
394,E 9 St & Avenue C,40.72521311,-73.97768752,"Citi Bike - E 9 St & Avenue C, East 9th Street, East Village, Manhattan Community Board 3, Manhattan, New York County, New York, 10009, United States"
400,Pitt St & Stanton St,40.71926081,-73.98178024,"Citi Bike - Pitt St & Stanton St, Stanton Street, Lower East Side, Manhattan Community Board 3, Manhattan, New York County, New York, 10002-1013, United States"
401,Allen St & Rivington St,40.72019576,-73.98997825,"137, Allen Street, Lower East Side, Manhattan Community Board 3, Manhattan, New York County, New York, 10002, United States"
401,Allen St & Rivington St,40.719,-73.989,"Bank of America, Ludlow Street, Lower East Side, Manhattan Community Board 3, Manhattan, New York County, New York, 10002, United States"
402,Broadway & E 22 St,40.7403432,-73.98955109,"Citi Bike - Broadway & E 22 St, Broadway, Manhattan Community Board 5, Manhattan, New York County, New York, 10010, United States"
403,E 2 St & 2 Ave,40.72502876,-73.99069656,"Citi Bike - E 2 St & 2 Ave, East 2nd Street, East Village, Manhattan Community Board 3, Manhattan, New York County, New York, 10009, United States"
405,Washington St & Gansevoort St,40.739323,-74.008119,"Whitney Museum of American Art, 99, Gansevoort Street, Manhattan Community Board 2, Manhattan, New York County, New York, 10014, United States"
408,Market St & Cherry St,40.71076228,-73.99400398,"Citi Bike, Market Street, Two Bridges, Manhattan Community Board 3, Manhattan, New York County, New York, 10002, United States"
410,Suffolk St & Stanton St,40.72066442,-73.98517977,"Citi Bike - Suffolk St & Stanton St, Suffolk Street, Lower East Side, Manhattan Community Board 3, Manhattan, New York County, New York, 10002, United States"
411,E 6 St & Avenue D,40.72228087,-73.97668709,"Citi Bike - E 6 St & Avenue D, East 6th Street, East Village, Manhattan Community Board 3, Manhattan, New York County, New York, 10009:10010, United States"
411,E 6 St & Avenue D,40.722,-73.977,"58, Avenue D, East Village, Manhattan Community Board 3, Manhattan, New York County, New York, 10009, United States"
412,Forsyth St & Canal St,40.7158155,-73.99422366,"Citi Bike, Forsyth Street, Manhattan Community Board 3, Manhattan, New York County, New York, 10002, United States"
412,Forsyth St & Canal St,40.716,-73.995,"Chrystie Street, Chinatown, Manhattan, New York County, New York, 10002, United States"
415,Pearl St & Hanover Square,40.7047177,-74.00926027,"Citi Bike - Pearl St & Hanover Square, Pearl Street, Financial District, Manhattan Community Board 1, Manhattan, New York County, New York, 10038, United States"
417,Barclay St & Church St,40.71291224,-74.01020234,"Citi Bike - Barclay St & Church St, Barclay Street, Tribeca, Manhattan Community Board 1, Manhattan, New York County, New York, 10007, United States"
422,W 59 St & 10 Ave,40.770513,-73.988038,"Citi Bike - W 59 St & 10 Ave, West 59th Street, Upper West Side, Manhattan Community Board 4, Manhattan, New York County, New York, 100, United States"
422,W 59 St & 10 Ave,40.77,-73.989,"512, West 58th Street, Hell's Kitchen, Manhattan, New York County, New York, 10019, United States"
423,W 54 St & 9 Ave,40.76584941,-73.98690506,"Citi Bike - W 54 St / 9 Ave, West 54th Street, Manhattan Community Board 4, Manhattan, New York County, New York, 10019, United States"
423,W 54 St & 9 Ave,40.767,-73.986,"860, 9th Avenue, Garment District, Hell's Kitchen, Manhattan, New York County, New York, 10019, United States"
426,West St & Chambers St,40.71754834,-74.01322069,"Citi Bike - West St & Chambers St, Hudson River Park Esplanade, Battery Park City, Manhattan Community Board 1, Manhattan, New York County, New York, 10282, United States"
426,West St & Chambers St,40.719,-74.013,"Harrison Street Basketball Court, Hudson River Park Esplanade, Battery Park City, Manhattan Community Board 1, Manhattan, New York County, New York, 10282, United States"
427,Bus Slip & State St,40.701907,-74.013942,"Citi Bike - State St / Battery Park, Peter Minuit Plaza, Financial District, Manhattan Community Board 1, Manhattan, New York County, New York, 10004, United States"
432,E 7 St & Avenue A,40.72621788,-73.98379855,"Citi Bike - E 7 St & Avenue A, East 7th Street, East Village, Manhattan Community Board 3, Manhattan, New York County, New York, 10009, United States"
432,E 7 St & Avenue A,40.725,-73.983,"518, East 6th Street, East Village, Manhattan Community Board 3, Manhattan, New York County, New York, 10009, United States"
434,9 Ave & W 18 St,40.74317449,-74.00366443,"Citi Bike - 9 Ave & W 18 St, 9th Avenue, Chelsea District, Manhattan, New York County, New York, 100014, United States"
434,9 Ave & W 18 St,40.743,-74.004,"9 Ave & 17 St, 9th Avenue, Chelsea District, Manhattan, New York County, New York, 10019, United States"
435,W 21 St & 6 Ave,40.74173969,-73.99415556,"Citi Bike - W 21 St & 6 Ave, West 21st Street, Chelsea District, Manhattan, New York County, New York, 10011, United States"
435,W 21 St & 6 Ave,40.743,-73.995,"147, West 22nd Street, Chelsea, Manhattan, New York County, New York, 10011, United States"
438,St Marks Pl & 1 Ave,40.72779126,-73.98564945,"Citi Bike - St Marks Pl & 1 Ave, Saint Mark's Place, East Village, Manhattan Community Board 3, Manhattan, New York County, New York, 10003, United States"
439,E 4 St & 2 Ave,40.7262807,-73.98978041,"Citi Bike - E 4 St & 2 Ave, East 4th Street, East Village, Manhattan Community Board 3, Manhattan, New York County, New York, 10009, United States"
440,E 45 St & 3 Ave,40.75255434,-73.97282625,"Citi Bike - E 45 St & 3 Ave, East 45th Street, Turtle Bay, Manhattan Community Board 6, Manhattan, New York County, New York, 10017, United States"
440,E 45 St & 3 Ave,40.752,-73.974,"696, 3rd Avenue, Turtle Bay, Manhattan Community Board 6, Manhattan, New York County, New York, 10017, United States"
441,E 52 St & 2 Ave,40.756014,-73.967416,"Citi Bike - E 52 St & 2 Ave, East 52nd Street, Turtle Bay, Manhattan Community Board 6, Manhattan, New York County, New York, 10022, United States"
442,W 27 St & 7 Ave,40.746647,-73.993915,"West 27th Street, Chelsea District, Manhattan, New York County, New York, 10001, United States"
445,E 10 St & Avenue A,40.72740794,-73.98142006,"Citi Bike - E 10 St & Avenue A, East 10th Street, East Village, Manhattan Community Board 3, Manhattan, New York County, New York, 10009, United States"
445,E 10 St & Avenue A,40.728,-73.98,"535, East 11th Street, East Village, Manhattan Community Board 3, Manhattan, New York County, New York, 10009, United States"
446,W 24 St & 7 Ave,40.74487634,-73.99529885,"Citi Bike - W 24 St & 7 Ave, West 24th Street, Chelsea District, Manhattan, New York County, New York, 10011, United States"
447,8 Ave & W 52 St,40.76370739,-73.9851615,"Citi Bike - 8 Ave & W 52 St, 8th Avenue, Theater District, Manhattan Community Board 4, Manhattan, New York County, New York, 10019, United States"
447,8 Ave & W 52 St,40.764,-73.986,"Public School 58, 317, West 52nd Street, Theater District, Manhattan Community Board 4, Manhattan, New York County, New York, 10019, United States"
448,W 37 St & 10 Ave,40.75660359,-73.9979009,"Citi Bike - W 37 St & 10 Ave, West 37th Street, Manhattan Community Board 4, Manhattan, New York County, New York, 10018, United States"
448,W 37 St & 10 Ave,40.758,-73.998,"519, West 38th Street, Manhattan Community Board 4, Manhattan, New York County, New York, 10018, United States"
450,W 49 St & 8 Ave,40.76227205,-73.98788205,"Citi Bike - W 49 St & 8 Ave, West 49th Street, Theater District, Manhattan Community Board 4, Manhattan, New York County, New York, 10019, United States"
450,W 49 St & 8 Ave,40.761,-73.989,"328, West 47th Street, Theater District, Manhattan Community Board 4, Manhattan, New York County, New York, 10036, United States"
453,W 22 St & 8 Ave,40.74475148,-73.99915362,"Citi Bike - W 22 St & 8 Ave, West 22nd Street, Chelsea District, Manhattan, New York County, New York, 10011, United States"
453,W 22 St & 8 Ave,40.746,-73.998,"CVS Pharmacy, 272, 8th Avenue, Chelsea, Manhattan, New York County, New York, 10011, United States"
454,E 51 St & 1 Ave,40.75455731,-73.96592976,"Citi Bike - E 51 St & 1 Ave, East 51st Street, Turtle Bay, Manhattan Community Board 6, Manhattan, New York County, New York, 10022, United States"
455,1 Ave & E 44 St,40.75001986,-73.96905301,"Citi Bike - 1 Ave & E 44 St, 1st Avenue Tunnel, Turtle Bay, Manhattan Community Board 6, Manhattan, New York County, New York, 10017-6927, United States"
456,E 53 St & Madison Ave,40.7597108,-73.97402311,"Citi Bike - E 53 St & Madison Ave, East 53rd Street, Turtle Bay, Manhattan Community Board 5, Manhattan, New York County, New York, 10055, United States"
457,Broadway & W 58 St,40.76695317,-73.98169333,"Citi Bike - Broadway & W 58 St, Broadway, Manhattan Community Board 5, Manhattan, New York County, New York, 10019, United States"
458,11 Ave & W 27 St,40.751396,-74.005226,"La Colombe Coffee Roasters, 601, West 27th Street, Manhattan Community Board 4, Manhattan, New York County, New York, 10001, United States"
458,11 Ave & W 27 St,40.752,-74.004,"Avalon West Chelsea, 282, 11th Avenue, Chelsea, Manhattan, New York County, New York, 10001, United States"
459,W 20 St & 11 Ave,40.746745,-74.007756,"Citi Bike - W 20 St & 11 Ave, West 20th Street, Chelsea District, Manhattan, New York County, New York, 10011, United States"
459,W 20 St & 11 Ave,40.746,-74.007,"525, West 19th Street, Chelsea District, Manhattan, New York County, New York, 10011, United States"
461,E 20 St & 2 Ave,40.73587678,-73.98205027,"Citi Bike - E 20 St & 2 Ave, East 20th Street, Manhattan Community Board 6, Manhattan, New York County, New York, 10010, United States"
461,E 20 St & 2 Ave,40.737,-73.983,"224, East 21st Street, Manhattan Community Board 6, Manhattan, New York County, New York, 10010, United States"
462,W 22 St & 10 Ave,40.74691959,-74.00451887,"Citi Bike - W 22 St & 10 Ave, West 22nd Street, Chelsea District, Manhattan, New York County, New York, 10011, United States"
464,E 56 St & 3 Ave,40.75934501,-73.96759673,"201, East 56th Street, Manhattan Community Board 6, Manhattan, New York County, New York, 10022, United States"
465,Broadway & W 41 St,40.75513557,-73.98658032,"42nd Street‚ÄìTimes Square‚ÄìPort Authority Bus Terminal, 8th Avenue, Theater District, Manhattan Community Board 5, Manhattan, New York County, New York, 10036, United States"
466,W 25 St & 6 Ave,40.74395411,-73.99144871,"Citi Bike - W 25 St & 6 Ave, West 25th Street, Flatiron District, Manhattan, New York County, New York, 10001, United States"
468,Broadway & W 56 St,40.7652654,-73.98192338,"Citi Bike - Broadway & W 55 St, West 56th Street, Midtown, Manhattan Community Board 5, Manhattan, New York County, New York, 10019, United States"
468,Broadway & W 56 St,40.764,-73.983,"236, West 54th Street, Theater District, Manhattan Community Board 5, Manhattan, New York County, New York, 10019, United States"
469,Broadway & W 53 St,40.76344058,-73.98268129,"Citi Bike - Broadway & W 53 St, West 53rd Street, Theater District, Manhattan Community Board 5, Manhattan, New York County, New York, 10019, United States"
470,W 20 St & 8 Ave,40.74345335,-74.00004031,"Citi Bike - W 20 St & 8 Ave, West 20th Street, Chelsea District, Manhattan, New York County, New York, 10011, United States"
472,E 32 St & Park Ave,40.7457121,-73.98194829,"Citi Bike - E 32 St & Park Ave, East 32nd Street, Midtown South, Manhattan Community Board 5, Manhattan, New York County, New York, 10016, United States"
472,E 32 St & Park Ave,40.746,-73.983,"38, East 32nd Street, Midtown South, Manhattan Community Board 5, Manhattan, New York County, New York, 10016, United States"
473,Rivington St & Chrystie St,40.72110063,-73.9919254,"M‚ÄôFinda Kalunga Garden, Chrystie Street, Lower East Side, Manhattan Community Board 3, Manhattan, New York County, New York, 10012-3332, United States"
474,5 Ave & E 29 St,40.7451677,-73.98683077,"Citi Bike - 5 Ave & E 29 St, 5th Avenue, Midtown South, Manhattan Community Board 5, Manhattan, New York County, New York, 10035, United States"
474,5 Ave & E 29 St,40.746,-73.986,"Valley Bank, 295, 5th Avenue, Midtown South, Manhattan Community Board 5, Manhattan, New York County, New York, 10035, United States"
476,E 31 St & 3 Ave,40.74394314,-73.97966069,"Citi Bike - E 31 St & 3 Ave, East 31st Street, Kips Bay, Manhattan Community Board 6, Manhattan, New York County, New York, 10016, United States"
476,E 31 St & 3 Ave,40.743,-73.98,"Future Village Farm Inc, 425, 3rd Avenue, Kips Bay, Manhattan Community Board 6, Manhattan, New York County, New York, 10016, United States"
477,W 41 St & 8 Ave,40.75640548,-73.9900262,"Citi Bike - W 41 St & 8 Ave, West 41st Street, Theater District, Manhattan Community Board 5, Manhattan, New York County, New York, 10036, United States"
477,W 41 St & 8 Ave,40.755,-73.989,"New York Elegant Fabrics, 222, West 40th Street, Garment District, Manhattan Community Board 5, Manhattan, New York County, New York, 10018, United States"
478,11 Ave & W 41 St,40.76030096,-73.99884222,"Citi Bike - 11 Ave & W 41 St, 11th Avenue, Hell's Kitchen, Manhattan, New York County, New York, 10018, United States"
478,11 Ave & W 41 St,40.761,-73.998,"Riverbank West, 560, West 43rd Street, Manhattan Community Board 4, Manhattan, New York County, New York, 10036, United States"
479,9 Ave & W 45 St,40.76019252,-73.9912551,"Citi Bike - 9 Ave & W 45 St, 9th Avenue, Garment District, Hell's Kitchen, Manhattan, New York County, New York, 100036, United States"
479,9 Ave & W 45 St,40.761,-73.992,"415, West 45th Street, Manhattan Community Board 4, Manhattan, New York County, New York, 10036, United States"
480,W 53 St & 10 Ave,40.76669671,-73.99061728,"Citi Bike - W 53 St & 10 Ave, West 53rd Street, Theater District, Manhattan Community Board 4, Manhattan, New York County, New York, 10019, United States"
480,W 53 St & 10 Ave,40.767,-73.992,"526, West 53rd Street, Theater District, Manhattan Community Board 4, Manhattan, New York County, New York, 10019, United States"
482,W 15 St & 7 Ave,40.73935542,-73.99931783,"Citi Bike - W 15 St & 7 Ave, West 15th Street, Chelsea District, Manhattan, New York County, New York, 10011, United States"
482,W 15 St & 7 Ave,40.74,-73.998,"154, West 17th Street, Chelsea District, Manhattan, New York County, New York, 10011, United States"
483,E 12 St & 3 Ave,40.73223272,-73.98889957,"Citi Bike - E 12 St & 3 Ave, East 12th Street, East Village, Manhattan Community Board 3, Manhattan, New York County, New York, 10009, United States"
484,W 44 St & 5 Ave,40.75500254,-73.98014437,"530 5th Avenue, 530, 5th Avenue, Midtown, Manhattan Community Board 5, Manhattan, New York County, New York, 10036, United States"
485,W 37 St & 5 Ave,40.75038009,-73.98338988,"Citi Bike - W 37 St & 5 Ave, West 37th Street, Midtown South, Manhattan Community Board 5, Manhattan, New York County, New York, 10018, United States"
485,W 37 St & 5 Ave,40.749,-73.983,"200 Madison Avenue, 200, Madison Avenue, Midtown South, Manhattan Community Board 5, Manhattan, New York County, New York, 10016, United States"
486,Broadway & W 29 St,40.7462009,-73.98855723,"Citi Bike - Broadway & W 29 St, Broadway, Midtown South, Manhattan Community Board 5, Manhattan, New York County, New York, 10019, United States"
487,E 20 St & FDR Drive,40.73314259,-73.97573881,"Citi Bike - E 20 St & FDR Drive, East 20th Street, Manhattan Community Board 6, Manhattan, New York County, New York, 10009:10010, United States"
487,E 20 St & FDR Drive,40.734,-73.977,"511, East 20th Street, Stuy Town, Manhattan, New York County, New York, 10010, United States"
488,W 39 St & 9 Ave,40.75645824,-73.99372222,"Citi Bike - W 39 St & 9 Ave, West 39th Street, Garment District, Manhattan Community Board 4, Manhattan, New York County, New York, 10018, United States"
489,10 Ave & W 28 St,40.75066386,-74.00176802,"Chelsea Park, West 28th Street, Chelsea District, Manhattan, New York County, New York, 10001, United States"
490,8 Ave & W 33 St,40.751551,-73.993934,"34th Street - Penn Station, West 33rd Street, Chelsea District, Manhattan, New York County, New York, 10001, United States"
490,8 Ave & W 33 St,40.752,-73.995,"The Olivia, West 33rd Street, Manhattan Community Board 4, Manhattan, New York County, New York, 10001, United States"
491,E 24 St & Park Ave S,40.74096374,-73.98602213,"Citi Bike - E 24 St & Park Ave S, East 24th Street, Manhattan Community Board 5, Manhattan, New York County, New York, 10010, United States"
491,E 24 St & Park Ave S,40.74,-73.986,"108, East 23rd Street, Manhattan Community Board 5, Manhattan, New York County, New York, 10010, United States"
492,W 33 St & 7 Ave,40.75019995,-73.99093085,"Pennsylvania Station, West 35th Street, Garment District, Manhattan Community Board 5, Manhattan, New York County, New York, 10001, United States"
493,W 45 St & 6 Ave,40.7568001,-73.98291153,"Citi Bike - W 45 St & 6 Ave, West 45th Street, Theater District, Manhattan Community Board 5, Manhattan, New York County, New York, 10036, United States"
494,W 26 St & 8 Ave,40.74734825,-73.99723551,"Citi Bike - W 26 St & 8 Ave, 8th Avenue, West Village, Chelsea, Manhattan, New York County, New York, 10017, United States"
494,W 26 St & 8 Ave,40.746,-73.998,"CVS Pharmacy, 272, 8th Avenue, Chelsea, Manhattan, New York County, New York, 10011, United States"
495,W 47 St & 10 Ave,40.76269882,-73.99301222,"Citi Bike - W 47 St & 10 Ave, West 47th Street, Theater District, Manhattan Community Board 4, Manhattan, New York County, New York, 10036, United States"
496,E 16 St & 5 Ave,40.73726186,-73.99238967,"Citi Bike - E 16 St & 5 Ave, East 16th Street, Union Square, Manhattan Community Board 5, Manhattan, New York County, New York, 10003, United States"
496,E 16 St & 5 Ave,40.737,-73.992,"The New School, East 16th Street, Union Square, Manhattan Community Board 5, Manhattan, New York County, New York, 10003, United States"
497,E 17 St & Broadway,40.73704984,-73.99009296,"Citi Bike - E 17 St & Broadway, East 17th Street, Union Square, Manhattan Community Board 5, Manhattan, New York County, New York, 10010, United States"
497,E 17 St & Broadway,40.737,-73.989,"McKinsey & Company New York Experience Studio, 215, Park Avenue South, Union Square, Manhattan Community Board 5, Manhattan, New York County, New York, 10003, United States"
498,Broadway & W 32 St,40.74854862,-73.98808416,"34th Street‚ÄìHerald Square, PATH - 33rd Street entrance (closed), Chelsea District, Manhattan, New York County, New York, 10001-2062, United States"
499,Broadway & W 60 St,40.76915505,-73.98191841,"Citi Bike - Broadway & W 60 St, Broadway, Manhattan Community Board 7, Manhattan, New York County, New York, 10034, United States"
499,Broadway & W 60 St,40.77,-73.983,"The Beaumont, 30, West 61st Street, Manhattan Community Board 7, Manhattan, New York County, New York, 10023, United States"
500,Broadway & W 51 St,40.76228826,-73.98336183,"50th Street, West 51st Street, Theater District, Manhattan Community Board 5, Manhattan, New York County, New York, 10019, United States"
500,Broadway & W 51 St,40.761,-73.983,"159, West 50th Street, Theater District, Manhattan Community Board 5, Manhattan, New York County, New York, 10019, United States"
501,FDR Drive & E 35 St,40.744219,-73.97121214,"Citi Bike - FDR Drive & E 35 St, East River Esplanade, Murray Hill, Manhattan Community Board 6, Manhattan, New York County, New York, 10017-6927, United States"
502,Henry St & Grand St,40.714215,-73.981346,"Citi Bike - Grand Street / Henry Street, Henry Street, Lower East Side, Manhattan Community Board 3, Manhattan, New York County, New York, 10002, United States"
502,Henry St & Grand St,40.714211,-73.981095,"Citi Bike - Grand Street / Henry Street, Henry Street, Lower East Side, Manhattan Community Board 3, Manhattan, New York County, New York, 10002, United States"
503,E 20 St & Park Ave,40.73827428,-73.98751968,"Citi Bike - E 20 St & Park Ave, East 20th Street, Gramercy, Manhattan, New York County, New York, 10003, United States"
503,E 20 St & Park Ave,40.737,-73.989,"McKinsey & Company New York Experience Studio, 215, Park Avenue South, Union Square, Manhattan Community Board 5, Manhattan, New York County, New York, 10003, United States"
504,1 Ave & E 16 St,40.73221853,-73.98165557,"Citi Bike - 1 Ave & E 15 St, 1st Avenue, Manhattan Community Board 6, Manhattan, New York County, New York, 10009, United States"
504,1 Ave & E 16 St,40.731,-73.983,"227, 1st Avenue, East Village, Manhattan Community Board 3, Manhattan, New York County, New York, 10003, United States"
504,1 Ave & E 16 St [temporarily removed],40.73221853,-73.98165557,"Citi Bike - 1 Ave & E 15 St, 1st Avenue, Manhattan Community Board 6, Manhattan, New York County, New York, 10009, United States"
505,6 Ave & W 33 St,40.74901271,-73.98848395,"34th Street - Herald Square (B,D,F,M), 6th Avenue, Manhattan Community Board 5, Manhattan, New York County, New York, 10019, United States"
505,6 Ave & W 33 St,40.749,-73.989,"Manhattan Mall, 100, West 33rd Street, Manhattan Community Board 5, Manhattan, New York County, New York, 10001, United States"
507,E 25 St & 2 Ave,40.73912601,-73.97973776,"Citi Bike - E 25 St & 2 Ave, East 25th Street, Kips Bay, Manhattan Community Board 6, Manhattan, New York County, New York, 10010, United States"
507,E 25 St & 2 Ave,40.74,-73.98,"242, East 26th Street, Kips Bay, Manhattan Community Board 6, Manhattan, New York County, New York, 10010, United States"
508,W 46 St & 11 Ave,40.76341379,-73.99667444,"Citi Bike - W 46 St & 11 Av, West 46th Street, Manhattan Community Board 4, Manhattan, New York County, New York, 10036, United States"
508,W 46 St & 11 Ave,40.764,-73.998,"639, West 46th Street, Manhattan Community Board 4, Manhattan, New York County, New York, 10036, United States"
509,9 Ave & W 22 St,40.7454973,-74.00197139,"Citi Bike - 9 Ave & W 22 St, 9th Avenue, Chelsea District, Manhattan, New York County, New York, 100014, United States"
509,9 Ave & W 22 St,40.746,-74.001,"360, West 23rd Street, Chelsea District, Manhattan, New York County, New York, 10011, United States"
510,W 51 St & 6 Ave,40.7606597,-73.98042047,"Rockefeller Center, 45, Rockefeller Plaza, Midtown, Manhattan Community Board 5, Manhattan, New York County, New York, 10111, United States"
513,W 56 St & 10 Ave,40.768254,-73.988639,"455, West 56th Street, Midtown, Manhattan Community Board 4, Manhattan, New York County, New York, 10019, United States"
513,W 56 St & 10 Ave,40.767,-73.989,"443, West 54th Street, Manhattan Community Board 4, Manhattan, New York County, New York, 10019, United States"
514,12 Ave & W 40 St,40.76087502,-74.00277668,"Citi Bike, Hudson River Park Esplanade, Hudson Yards, Manhattan, New York County, New York, 100036, United States"
514,12 Ave & W 40 St,40.761,-74.004,"Lincoln Tunnel, Manhattan Community Board 4, Manhattan, New York County, Weehawken, Hudson County, New Jersey, 100036, United States"
515,W 43 St & 10 Ave,40.76009437,-73.99461843,"Citi Bike - W 43 St & 10 Ave, West 43rd Street, Manhattan Community Board 4, Manhattan, New York County, New York, 10036, United States"
515,W 43 St & 10 Ave,40.761,-73.995,"502, West 44th Street, Manhattan Community Board 4, Manhattan, New York County, New York, 10036, United States"
516,E 47 St & 1 Ave,40.75206862,-73.96784384,"Citi Bike - E 47 St & 1 Ave, Dag Hammarskjold Plaza, Turtle Bay, Manhattan Community Board 6, Manhattan, New York County, New York, 10017-6927, United States"
516,E 47 St & 1 Ave,40.752,-73.968,"Citi Bike - E 47 St & 1 Ave, Dag Hammarskjold Plaza, Turtle Bay, Manhattan Community Board 6, Manhattan, New York County, New York, 10017-6927, United States"
517,Pershing Square South,40.751581,-73.97791,"Citi Bike - Pershing Square South, Park Avenue, Murray Hill, Manhattan Community Board 5, Manhattan, New York County, New York, 10037, United States"
517,Pershing Square South,40.752,-73.977,"Grand Central Terminal, Vanderbilt Avenue, Manhattan Community Board 5, Manhattan, New York County, New York, 10017, United States"
518,E 39 St & 2 Ave,40.74780373,-73.9734419,"Citi Bike - E 39 St & 2 Ave, East 39th Street, Murray Hill, Manhattan Community Board 6, Manhattan, New York County, New York, 10016, United States"
518,E 39 St & 2 Ave,40.749,-73.974,"222, East 41st Street, Murray Hill, Manhattan Community Board 6, Manhattan, New York County, New York, 10017, United States"
519,Pershing Square North,40.751873,-73.977706,"Citi Bike - Pershing Square North, Park Avenue, Murray Hill, Manhattan Community Board 5, Manhattan, New York County, New York, 10037, United States"
519,Pershing Square North,40.752,-73.977,"Grand Central Terminal, Vanderbilt Avenue, Manhattan Community Board 5, Manhattan, New York County, New York, 10017, United States"
520,W 52 St & 5 Ave,40.75992262,-73.97648516,"Citi Bike - W 52 St & 5 Ave, West 52nd Street, Midtown, Manhattan Community Board 5, Manhattan, New York County, New York, 10019, United States"
520,W 52 St & 5 Ave,40.761,-73.977,"9, West 53rd Street, Midtown, Manhattan Community Board 5, Manhattan, New York County, New York, 10019, United States"
522,E 51 St & Lexington Ave,40.75714758,-73.97207836,"Citi Bike - E 51 St / Lexington Ave, East 51st Street, Turtle Bay, Manhattan Community Board 5, Manhattan, New York County, New York, 10022, United States"
523,W 38 St & 8 Ave,40.75466591,-73.99138152,"Citi Bike - W 38 St & 8 Ave, West 38th Street, Garment District, Manhattan Community Board 5, Manhattan, New York County, New York, 10018, United States"
523,W 38 St & 8 Ave,40.755,-73.992,"Nepenthes New York, 307, West 38th Street, Garment District, Manhattan Community Board 4, Manhattan, New York County, New York, 10018, United States"
524,W 43 St & 6 Ave,40.75527307,-73.98316936,"Midtown, Manhattan Community Board 5, Manhattan, New York County, New York, United States"
525,W 34 St & 11 Ave,40.75594159,-74.0021163,"Citi Bike - W 34 St / 11 Ave, West 34th Street, Hudson Yards, Manhattan, New York County, New York, 10001, United States"
525,W 34 St & 11 Ave,40.755,-74.001,"34 Street - Hudson Yards entrance, Manhattan Community Board 4, Manhattan, New York County, New York, 10199, United States"
526,E 33 St & 5 Ave,40.74765947,-73.98490707,"Citi Bike - E 33 St & 5 Ave, East 33rd Street, Midtown South, Manhattan Community Board 5, Manhattan, New York County, New York, 10016, United States"
526,E 33 St & 5 Ave,40.749,-73.986,"Human Rights Watch, 350 5th Ave, West 34th Street, Midtown South, Manhattan Community Board 5, Manhattan, New York County, New York, 10118, United States"
528,2 Ave & E 31 St,40.74290902,-73.97706058,"Citi Bike - 2 Ave & E 31 St, East 31st Street, Kips Bay, Manhattan Community Board 6, Manhattan, New York County, New York, 10016, United States"
528,2 Ave & E 31 St,40.743,-73.977,"USPS, 2nd Avenue, Kips Bay, Manhattan Community Board 6, Manhattan, New York County, New York, 10016, United States"
529,W 42 St & 8 Ave,40.7575699,-73.99098507,"Port Authority Bus Terminal, 625, 8th Avenue, Theater District, Manhattan Community Board 4, Manhattan, New York County, New York, 100036, United States"
530,11 Ave & W 59 St,40.77149671054441,-73.99046033620834,"John Jay College of Criminal Justice, West 59th Street, Upper West Side, Manhattan Community Board 4, Manhattan, New York County, New York, 100, United States"
530,11 Ave & W 59 St,40.77,-73.989,"512, West 58th Street, Hell's Kitchen, Manhattan, New York County, New York, 10019, United States"
531,Forsyth St & Broome St,40.71893904,-73.99266288,"Citi Bike - Forsyth St & Broome St, Broome Street, Lower East Side, Manhattan Community Board 3, Manhattan, New York County, New York, 10002, United States"
533,Broadway & W 38 St,40.75299641,-73.98721619,"Citi Bike - Broadway & W 39 St, Broadway, Garment District, Manhattan Community Board 5, Manhattan, New York County, New York, 10019, United States"
534,Water - Whitehall Plaza,40.70255065,-74.0127234,"Citi Bike - Water - Whitehall Plaza, Water Street, Financial District, Manhattan Community Board 1, Manhattan, New York County, New York, 10004, United States"
536,1 Ave & E 30 St,40.74144387,-73.97536082,"Citi Bike - 1 Ave & E 30 St, 1st Avenue, Kips Bay, Manhattan Community Board 6, Manhattan, New York County, New York, 10017-6927, United States"
536,1 Ave & E 30 St,40.74,-73.974,"430, East 29th Street, Kips Bay, Manhattan Community Board 6, Manhattan, New York County, New York, 10016, United States"
537,Lexington Ave & E 24 St,40.74025878,-73.98409214,"Citi Bike - Lexington Ave & E 24 St, Lexington Avenue, Kips Bay, Manhattan Community Board 6, Manhattan, New York County, New York, 10037, United States"
540,Lexington Ave & E 29 St,40.74311555376486,-73.98215353488922,"Citi Bike - Lexington Ave & E 29 St, Lexington Avenue, Kips Bay, Manhattan Community Board 5, Manhattan, New York County, New York, 10037, United States"
540,Lexington Ave & E 29 St,40.743,-73.983,"107, East 28th Street, Rose Hill, Manhattan Community Board 5, Manhattan, New York County, New York, 10016, United States"
540,Lexington Ave & E 29 St [temporarily removed],40.74311555376486,-73.98215353488922,"Citi Bike - Lexington Ave & E 29 St, Lexington Avenue, Kips Bay, Manhattan Community Board 5, Manhattan, New York County, New York, 10037, United States"
545,E 23 St & 1 Ave,40.736502,-73.97809472,"Citi Bike - E 23 St & 1 Ave, East 23rd Street, Stuy Town, Manhattan, New York County, New York, 10010, United States"
545,E 23 St & 1 Ave,40.737,-73.977,"Veteran Affairs New York Harbor Healthcare System, Asser Levy Place, Kips Bay, Manhattan Community Board 6, Manhattan, New York County, New York, 10016, United States"
546,E 30 St & Park Ave S,40.74444921,-73.98303529,"Citi Bike - E 30 St & Park Ave S, East 30th Street, Midtown South, Manhattan Community Board 5, Manhattan, New York County, New York, 10016, United States"
546,E 30 St & Park Ave S,40.743,-73.983,"107, East 28th Street, Rose Hill, Manhattan Community Board 5, Manhattan, New York County, New York, 10016, United States"
2003,1 Ave & E 18 St,40.733812191966315,-73.98054420948029,"Citi Bike - 1 Ave & E 18 St, 1st Avenue service road, Manhattan Community Board 6, Manhattan, New York County, New York, 10009, United States"
2003,1 Ave & E 18 St [temporarily removed],40.733812191966315,-73.98054420948029,"Citi Bike - 1 Ave & E 18 St, 1st Avenue service road, Manhattan Community Board 6, Manhattan, New York County, New York, 10009, United States"
2006,Central Park S & 6 Ave,40.76590936,-73.97634151,"Citi Bike - Central Park S & 6 Ave, Central Park Outer Loop, Manhattan, New York County, New York, 10106, United States"
2006,Central Park S & 6 Ave,40.767,-73.977,"Center Drive, Midtown, Manhattan, New York County, New York, 10106, United States"
2008,Little West St & 1 Pl,40.70569254,-74.01677685,"Citi Bike - Little West St & 1 Pl, 1st Place, Battery Park City, Manhattan Community Board 1, Manhattan, New York County, New York, 10280, United States"
2008,Little West St & 1 Pl,40.707,-74.016,"West Street, Battery Park City, Manhattan Community Board 1, Manhattan, New York County, New York, 10280, United States"
2009,Catherine St & Monroe St,40.71117444,-73.99682619,"Citi Bike - Catherine Street & Monroe Street, Catherine Street, Two Bridges, Manhattan Community Board 3, Manhattan, New York County, New York, 10038, United States"
2009,Catherine St & Monroe St,40.71,-73.998,"10, Catherine Slip, Two Bridges, Manhattan Community Board 3, Manhattan, New York County, New York, 10038, United States"
2010,Grand St & Greene St,40.72165481,-74.00234737,"Citi Bike - Grand St & Greene St, Grand Street, Manhattan Community Board 2, Manhattan, New York County, New York, 10013, United States"
2010,Grand St & Greene St,40.72170005235607,-74.00238141417502,"Citi Bike - Grand St & Greene St, Grand Street, Manhattan Community Board 2, Manhattan, New York County, New York, 10013, United States"
2012,E 27 St & 1 Ave,40.739445,-73.976806,"445, 1st Avenue, Kips Bay, Manhattan Community Board 6, Manhattan, New York County, New York, 10016, United States"
2017,E 43 St & 2 Ave,40.75022392,-73.97121414,"305, East 43rd Street, Turtle Bay, Manhattan Community Board 6, Manhattan, New York County, New York, 10017, United States"
2021,W 45 St & 8 Ave,40.75929124,-73.98859651,"Citi Bike - W 45 St & 8 Ave, West 45th Street, Theater District, Hell's Kitchen, Manhattan, New York County, New York, 10036, United States"
2022,E 60 St & York Ave,40.759107,-73.959223,"Citi Bike - E 60 St & York Ave, York Avenue, Upper East Side, Manhattan, New York County, New York, 10155, United States"
2022,E 60 St & York Ave,40.758,-73.959,"FDR Drive, Lenox Hill, Manhattan, New York County, New York, 10155, United States"
2023,E 55 St & Lexington Ave,40.75968085,-73.97031366,"Central Synagogue, East 55th Street, Manhattan Community Board 5, Manhattan, New York County, New York, 10022, United States"
3002,South End Ave & Liberty St,40.711512,-74.015756,"Citi Bike - South End Ave & Liberty St, Liberty Street, Battery Park City, Manhattan Community Board 1, Manhattan, New York County, New York, 10005, United States"
3131,E 68 St & 3 Ave,40.76712840349542,-73.96224617958069,"Citi bike - East 68th Street & 3rd Avenue, East 68th Street, Manhattan Community Board 8, Manhattan, New York County, New York, 10021, United States"
3132,E 59 St & Madison Ave,40.76350532,-73.97109243,"35, East 59th Street, Upper East Side, Manhattan, New York County, New York, 10022, United States"
3132,E 59 St & Madison Ave,40.764,-73.971,"645, Madison Avenue, Manhattan Community Board 8, Manhattan, New York County, New York, 10022, United States"
3134,3 Ave & E 62 St,40.76312584,-73.96526895,"200, East 62nd Street, Manhattan Community Board 8, Manhattan, New York County, New York, 10065, United States"
3135,E 75 St & 3 Ave,40.77112927,-73.95772297,"236, East 75th Street, Lenox Hill, Manhattan, New York County, New York, 10021, United States"
3136,5 Ave & E 63 St,40.766368,-73.971518,"Supreme Snail Emporium, 5th Avenue, Manhattan Community Board 8, Manhattan, New York County, New York, 10035, United States"
3136,5 Ave & E 63 St,40.767,-73.971,"818, 5th Avenue, Manhattan Community Board 8, Manhattan, New York County, New York, 10065, United States"
3137,5 Ave & E 73 St,40.77282817,-73.96685276,"Central Park Outer Loop, Manhattan, New York County, New York, 10075-0381, United States"
3137,5 Ave & E 73 St,40.773,-73.968,"The Pilgrim, 72nd Street Transverse, Manhattan, New York County, New York, 10065, United States"
3137,5 Ave & E 72 St,40.77282817,-73.96685276,"Central Park Outer Loop, Manhattan, New York County, New York, 10075-0381, United States"
3139,E 72 St & Park Ave,40.77118287540658,-73.96409422159195,"Citi Bike, East 72nd Street, Manhattan Community Board 8, Manhattan, New York County, New York, 10021, United States"
3139,E 72 St & Park Ave,40.77,-73.965,"49, East 70th Street, Upper East Side, Manhattan, New York County, New York, 10021, United States"
3140,1 Ave & E 78 St,40.77140426,-73.9535166,"1487, 1st Avenue, East Harlem, Manhattan Community Board 8, Manhattan, New York County, New York, 10075, United States"
3140,1 Ave & E 78 St,40.77,-73.953,"421, East 76th Street, Manhattan Community Board 8, Manhattan, New York County, New York, 10021, United States"
3141,1 Ave & E 68 St,40.76500525,-73.95818491,"Citi Bike 1 Avenue & E 68 Street, 1st Avenue, East Harlem, Manhattan Community Board 8, Manhattan, New York County, New York, 10029-6408, United States"
3141,1 Ave & E 68 St,40.764,-73.959,"Chirping Chicken, 1st Avenue, East Harlem, Manhattan Community Board 8, Manhattan, New York County, New York, 10029-6408, United States"
3142,1 Ave & E 62 St,40.7612274,-73.96094022,"Citi Bike - 1 Av & E 62 St, 1st Avenue, East Harlem, Manhattan Community Board 8, Manhattan, New York County, New York, 10029-6408, United States"
3142,1 Ave & E 62 St,40.761,-73.962,"336, East 61st Street, Manhattan Community Board 8, Manhattan, New York County, New York, 10065, United States"
3143,5 Ave & E 78 St,40.77632142182271,-73.96427392959595,"969, 5th Avenue, Manhattan Community Board 8, Manhattan, New York County, New York, 10075, United States"
3143,5 Ave & E 78 St,40.776,-73.965,"James Michael Levin Playground, 5th Avenue, Upper East Side, Manhattan, New York County, New York, 10035, United States"
3144,E 81 St & Park Ave,40.77677702,-73.9590097,"101, East 81st Street, Manhattan Community Board 8, Manhattan, New York County, New York, 10028, United States"
3145,E 84 St & Park Ave,40.77862688,-73.95772073,"100, East 84th Street, Upper East Side, Manhattan, New York County, New York, 10028, United States"
3145,E 84 St & Park Ave,40.779,-73.959,"Church of Saint Ignatius Loyola, East 84th Street, Upper East Side, Manhattan, New York County, New York, 10028, United States"
3146,E 81 St & 3 Ave,40.77573034,-73.9567526,"Antonucci Cafe, 170, East 81st Street, Manhattan Community Board 8, Manhattan, New York County, New York, 10028, United States"
3147,E 85 St & 3 Ave,40.77801203,-73.95407149,"201, East 85th Street, Manhattan Community Board 8, Manhattan, New York County, New York, 10028, United States"
3147,E 85 St & 3 Ave,40.779,-73.953,"210, East 87th Street, Carnegie Hill, Manhattan Community Board 8, Manhattan, New York County, New York, 10028, United States"
3148,E 84 St & 1 Ave,40.77565541,-73.95068615,"354, East 84th Street, Manhattan Community Board 8, Manhattan, New York County, New York, 10028, United States"
3148,E 84 St & 1 Ave,40.776,-73.95,"1630, 1st Avenue, Manhattan Community Board 8, Manhattan, New York County, New York, 10028, United States"
3150,E 85 St & York Ave,40.77536905,-73.94803392,"446, East 85th Street, Manhattan Community Board 8, Manhattan, New York County, New York, 10028, United States"
3151,E 81 St & York Ave,40.7728384,-73.94989233,"450, East 81st Street, Manhattan Community Board 8, Manhattan, New York County, New York, 10075, United States"
3151,E 81 St & York Ave,40.773,-73.95,"427, East 81st Street, Manhattan Community Board 8, Manhattan, New York County, New York, 10028, United States"
3152,3 Ave & E 71 St,40.76873687,-73.96119945,"1213, 3rd Avenue, Manhattan Community Board 8, Manhattan, New York County, New York, 10021, United States"
3153,E 71 St & 2 Ave,40.76817546742245,-73.95910263061523,"244, East 71st Street, Manhattan Community Board 8, Manhattan, New York County, New York, 10021, United States"
3154,E 77 St & 3 Ave,40.77314236,-73.95856158,"177, East 77th Street, Manhattan Community Board 8, Manhattan, New York County, New York, 10075, United States"
3155,Lexington Ave & E 63 St,40.76440023,-73.96648977,"Barbizon 63, East 63rd Street, Manhattan Community Board 8, Manhattan, New York County, New York, 10021, United States"
3156,E 72 St & York Ave,40.76663814,-73.95348296,"Sotheby's, 1334, York Avenue, Lenox Hill, Manhattan, New York County, New York, 10021, United States"
3156,E 72 St & York Ave,40.767,-73.953,"502, East 73rd Street, Lenox Hill, Manhattan, New York County, New York, 10021, United States"
3157,East End Ave & E 86 St,40.77518615,-73.94446054,"146, East End Avenue, Manhattan Community Board 8, Manhattan, New York County, New York, 10028, United States"
3157,East End Ave & E 86 St,40.776,-73.944,"170, East End Avenue, Manhattan Community Board 8, Manhattan, New York County, New York, 10128, United States"
3158,W 63 St & Broadway,40.77163851,-73.98261428,"Citi Bike - W 63 St & Columbus Av, West 63rd Street, Lincoln Square, Manhattan Community Board 7, Manhattan, New York County, New York, 10023-7503, United States"
3158,W 63 St & Broadway,40.773,-73.983,"Lincoln Center for the Performing Arts, 10, West 66th Street, Lincoln Square, Manhattan Community Board 7, Manhattan, New York County, New York, 10023, United States"
3159,W 67 St & Broadway,40.77492513,-73.98266566,"Apple Store, 1981, Broadway, Upper West Side, Manhattan Community Board 7, Manhattan, New York County, New York, 10023, United States"
3159,W 67 St & Broadway,40.776,-73.983,"The Dorchester, 155, West 68th Street, Upper West Side, Manhattan Community Board 7, Manhattan, New York County, New York, 10023, United States"
3160,Central Park West & W 76 St,40.77896784,-73.97374737,"Naturalists Gate, Central Park Outer Loop, Manhattan, New York County, New York, 10023-5104, United States"
3161,W 76 St & Columbus Ave,40.7801839724239,-73.97728532552719,"104, West 76th Street, Upper West Side, Manhattan Community Board 7, Manhattan, New York County, New York, 10023, United States"
3161,W 76 St & Columbus Ave,40.779,-73.977,"58, West 75th Street, Upper West Side, Manhattan Community Board 7, Manhattan, New York County, New York, 10023, United States"
3162,W 78 St & Broadway,40.78339981,-73.98093133,"Apthorp Apartments, 390, West End Avenue, Upper West Side, Manhattan Community Board 7, Manhattan, New York County, New York, 10024, United States"
3163,Central Park West & W 68 St,40.7734066,-73.97782542,"Citi Bike - CPW & W 68th St, Central Park Outer Loop, Manhattan, New York County, New York, 10023-5104, United States"
3164,Columbus Ave & W 72 St,40.7770575,-73.97898475,"Clarins, 247, Columbus Avenue, Upper West Side, Manhattan Community Board 7, Manhattan, New York County, New York, 10025, United States"
3164,Columbus Ave & W 72 St,40.776,-73.98,"Athleta, 216, Columbus Avenue, Upper West Side, Manhattan Community Board 7, Manhattan, New York County, New York, 10023, United States"
3165,Central Park West & W 72 St,40.77579376683666,-73.9762057363987,"The Majestic, 115, Central Park West, Upper West Side, Manhattan Community Board 7, Manhattan, New York County, New York, 10023, United States"
3166,Riverside Dr & W 72 St,40.78057799010334,-73.98562431335449,"West 72nd Street, Upper West Side, Manhattan Community Board 7, Manhattan, New York County, New York, 10069, United States"
3166,Riverside Dr & W 72 St,40.782,-73.986,"Henry Hudson Parkway, Upper West Side, Manhattan Community Board 7, Manhattan, New York County, New York, 10069, United States"
3167,Amsterdam Ave & W 73 St,40.77966809007312,-73.98093044757842,"280, Amsterdam Avenue, Upper West Side, Manhattan Community Board 7, Manhattan, New York County, New York, 10023, United States"
3167,Amsterdam Ave & W 73 St,40.779,-73.98,"155, West 73rd Street, Upper West Side, Manhattan Community Board 7, Manhattan, New York County, New York, 10023, United States"
3168,Central Park West & W 85 St,40.78472675,-73.96961715,"Citi Bike - CPW / W 85 St, Central Park Outer Loop, Manhattan, New York County, New York, 10024, United States"
3168,Central Park West & W 85 St,40.785,-73.971,"32, West 85th Street, Upper West Side, Manhattan Community Board 7, Manhattan, New York County, New York, 10024, United States"
3168,Central Park West & W 85 St (old),40.78472675,-73.96961715,"Citi Bike - CPW / W 85 St, Central Park Outer Loop, Manhattan, New York County, New York, 10024, United States"
3169,Riverside Dr & W 82 St,40.78720869,-73.98128127,"Citi Bike - Riverside Dr / W 82 St, Riverside Drive, Upper West Side, Manhattan Community Board 7, Manhattan, New York County, New York, 10024, United States"
3170,W 84 St & Columbus Ave,40.78499979,-73.97283406,"66, West 84th Street, Upper West Side, Manhattan Community Board 7, Manhattan, New York County, New York, 10024, United States"
3171,Amsterdam Ave & W 82 St,40.78524672,-73.97667321,"465, Amsterdam Avenue, Upper West Side, Manhattan Community Board 7, Manhattan, New York County, New York, 10024, United States"
3172,W 74 St & Columbus Ave,40.7785669,-73.97754961,"54, West 74th Street, Upper West Side, Manhattan Community Board 7, Manhattan, New York County, New York, 10023, United States"
3173,Riverside Blvd & W 67 St,40.777507027547976,-73.98888587951659,"Citi Bike - Riverside Bl / W 67 St, Riverside Boulevard, Upper West Side, Manhattan Community Board 7, Manhattan, New York County, New York, 10069, United States"
3173,Riverside Blvd & W 67 St,40.779,-73.989,"West Side Highway, Upper West Side, Manhattan Community Board 7, Manhattan, New York County, New York, 10069, United States"
3175,W 70 St & Amsterdam Ave,40.77748046,-73.98288594,"201, West 70th Street, Upper West Side, Manhattan Community Board 7, Manhattan, New York County, New York, 10023, United States"
3175,W 70 St & Amsterdam Ave,40.776,-73.983,"The Dorchester, 155, West 68th Street, Upper West Side, Manhattan Community Board 7, Manhattan, New York County, New York, 10023, United States"
3177,W 84 St & Broadway,40.7867947,-73.977112,"210, West 84th Street, Upper West Side, Manhattan Community Board 7, Manhattan, New York County, New York, 10024, United States"
3178,Riverside Dr & W 78 St,40.78414472,-73.98362492,"50, Riverside Drive, Upper West Side, Manhattan Community Board 7, Manhattan, New York County, New York, 10024, United States"
3178,Riverside Dr & W 78 St,40.785,-73.983,"West 79th Street, Upper West Side, Manhattan Community Board 7, Manhattan, New York County, New York, 10024, United States"
3182,Yankee Ferry Terminal,40.686931,-74.016966,"Yankee Pier, Craig Road South, Nolan Park, Manhattan Community Board 1, Manhattan, New York County, New York, 112321, United States"
3223,E 55 St & 3 Ave,40.75899655960512,-73.96865397691727,"Citi Bike - E 55 St & 3 Av, East 55th Street, Manhattan Community Board 6, Manhattan, New York County, New York, 10022, United States"
3226,W 82 St & Central Park West,40.78275,-73.97137,"2, West 82nd Street, Upper West Side, Manhattan Community Board 7, Manhattan, New York County, New York, 10024, United States"
3231,E 67 St & Park Ave,40.76780080148132,-73.96592080593109,"Citi Bike - E 67 St & Park Ave, East 67th Street, Manhattan Community Board 8, Manhattan, New York County, New York, 10021, United States"
3231,E 67 St & Park Ave,40.767,-73.965,"Park Avenue Armory, 643, Park Avenue, Carnegie Hill, Lenox Hill, Manhattan, New York County, New York, 10037, United States"
3233,E 48 St & 5 Ave,40.75724567911726,-73.97805914282799,"Citi Bike - 5 Ave & E 48 St, East 48th Street, Manhattan Community Board 5, Manhattan, New York County, New York, 10017, United States"
3233,E 48 St & 5 Ave,40.758,-73.977,"Saks Fifth Avenue, 611, 5th Avenue, Midtown, Manhattan Community Board 5, Manhattan, New York County, New York, 10035, United States"
3235,E 41 St & Madison Ave,40.752165280621966,-73.97992193698882,"Citi Bike - E 41 St & Madison Ave, East 41st Street, Midtown South, Manhattan Community Board 5, Manhattan, New York County, New York, 10017, United States"
3236,W 42 St & Dyer Ave,40.75898481399634,-73.99379968643188,"West 42nd Street, Manhattan Community Board 4, Manhattan, New York County, New York, 10036, United States"
3236,W 42 St & Dyer Ave,40.758,-73.995,"PABT Ramp, Manhattan Community Board 4, Manhattan, New York County, New York, 100036, United States"
3240,NYCBS Depot BAL - DYR,40.759030082196055,-73.99385869503021,"427, West 42nd Street, Manhattan Community Board 4, Manhattan, New York County, New York, 10036, United States"
3243,E 58 St & 1 Ave,40.75892386377695,-73.96226227283478,"401, East 58th Street, Manhattan Community Board 6, Manhattan, New York County, New York, 10022, United States"
3243,E 58 St & 1 Ave (NE Corner),40.75892386377695,-73.96226227283478,"401, East 58th Street, Manhattan Community Board 6, Manhattan, New York County, New York, 10022, United States"
3244,University Pl & E 8 St,40.73143724085228,-73.99490341544151,"New York University, West Houston Street, Manhattan Community Board 2, Manhattan, New York County, New York, 10012, United States"
3244,University Pl & E 8 St,40.731,-73.995,"Weinstein Hall, 5, University Place, Washington Square Village, Manhattan Community Board 2, Manhattan, New York County, New York, 10003, United States"
3245,NYCBS DEPOT - DELANCEY,40.71644423134479,-73.9823305606842,"234, Delancey Street, Lower East Side, Manhattan Community Board 3, Manhattan, New York County, New York, 10002, United States"
3250,58th St Depot,40.71690978045965,-73.98383796215057,"204, Delancey Street, Lower East Side, Manhattan Community Board 3, Manhattan, New York County, New York, 10002, United States"
3254,Soissons Landing,40.69231660719192,-74.01486575603485,"Visitor Center, Andes Road, Nolan Park, Manhattan Community Board 1, Manhattan, New York County, New York, 10004, United States"
3255,8 Ave & W 31 St,40.7505853470215,-73.9946848154068,"Pennsylvania Station, West 35th Street, Garment District, Manhattan Community Board 5, Manhattan, New York County, New York, 10001, United States"
3255,8 Ave & W 31 St,40.752,-73.995,"The Olivia, West 33rd Street, Manhattan Community Board 4, Manhattan, New York County, New York, 10001, United States"
3256,Pier 40 - Hudson River Park,40.7277140777778,-74.01129573583603,"Citi Bike, Hudson River Park Esplanade, Hudson Square, Manhattan Community Board 2, Manhattan, New York County, New York, 10282, United States"
3258,W 27 St & 10 Ave,40.75018156325683,-74.00218427181244,"Citi Bike - W 27 St & 10 Ave, West 27th Drive, Chelsea, Manhattan, New York County, New York, 10001, United States"
3259,9 Ave & W 28 St,40.74937024193277,-73.99923384189606,"313, 9th Avenue, Chelsea District, Manhattan, New York County, New York, 10001, United States"
3259,9 Ave & W 28 St,40.749,-73.998,"330, West 28th Street, Penn South, Manhattan, New York County, New York, 10001, United States"
3260,Mercer St & Bleecker St,40.72706363348306,-73.99662137031554,"New York University, West Houston Street, Manhattan Community Board 2, Manhattan, New York County, New York, 10012, United States"
3263,Cooper Square & Astor Pl,40.72951496224949,-73.99075269699097,"East Village, Manhattan Community Board 3, Manhattan, New York County, New York, United States"
3263,Cooper Square & Astor Pl,40.731,-73.992,"8th Street-New York University, East 8th Street, Washington Square Village, NoHo, Manhattan, New York County, New York, 10003, United States"
3282,5 Ave & E 88 St,40.78307,-73.95939,"Central Park Outer Loop, Manhattan, New York County, New York, 10128, United States"
3282,5 Ave & E 88 St,40.782,-73.959,"1060, 5th Avenue, Carnegie Hill, Manhattan Community Board 8, Manhattan, New York County, New York, 10128, United States"
3283,W 89 St & Columbus Ave,40.7882213,-73.97041561,"71, West 89th Street, Upper West Side, Manhattan Community Board 7, Manhattan, New York County, New York, 10024, United States"
3284,E 88 St & Park Ave,40.781410700190015,-73.95595908164978,"101, East 88th Street, Carnegie Hill, Manhattan Community Board 8, Manhattan, New York County, New York, 10128, United States"
3285,W 87 St & Amsterdam Ave,40.78839,-73.9747,"201, West 87th Street, Upper West Side, Manhattan Community Board 7, Manhattan, New York County, New York, 10024, United States"
3286,E 89 St & 3 Ave,40.7806284,-73.9521667,"201, East 89th Street, Carnegie Hill, Manhattan Community Board 8, Manhattan, New York County, New York, 10128, United States"
3286,E 89 St & 3 Ave,40.782,-73.953,"161, East 90th Street, Carnegie Hill, Manhattan Community Board 8, Manhattan, New York County, New York, 10128, United States"
3287,W 87 St & West End Ave,40.789622,-73.97757,"301, West 87th Street, Upper West Side, Manhattan Community Board 7, Manhattan, New York County, New York, 10024, United States"
3288,E 88 St & 1 Ave,40.778301,-73.9488134,"355, East 88th Street, Carnegie Hill, Manhattan Community Board 8, Manhattan, New York County, New York, 10128, United States"
3288,E 88 St & 1 Ave,40.779,-73.95,"305, East 88th Street, Carnegie Hill, Manhattan Community Board 8, Manhattan, New York County, New York, 10128, United States"
3289,W 90 St & Amsterdam Ave,40.79017948095081,-73.97288918495178,"175, West 90th Street, Upper West Side, Manhattan Community Board 7, Manhattan, New York County, New York, 10024, United States"
3289,W 90 St & Amsterdam Ave,40.791,-73.974,"Carmine's, 2450, Broadway, Upper West Side, Manhattan Community Board 7, Manhattan, New York County, New York, 10024, United States"
3290,E 89 St & York Ave,40.7779453,-73.946041,"429, East 89th Street, Manhattan Community Board 8, Manhattan, New York County, New York, 10128, United States"
3290,E 89 St & York Ave,40.779,-73.947,"402, East 90th Street, Manhattan Community Board 8, Manhattan, New York County, New York, 10128, United States"
3292,5 Ave & E 93 St,40.7857851,-73.957481,"5th Avenue & East 94th Street, Central Park Outer Loop, Manhattan, New York County, New York, 10129, United States"
3293,W 92 St & Broadway,40.7921,-73.9739,"USPS, Broadway, Upper West Side, Manhattan Community Board 7, Manhattan, New York County, New York, 10023, United States"
3294,E 91 St & Park Ave,40.7835016,-73.955327,"74, East 91st Street, Carnegie Hill, Manhattan Community Board 8, Manhattan, New York County, New York, 10128, United States"
3295,Central Park W & W 96 St,40.79127,-73.964839,"Citi Bike - CPW & W 96 St, Central Park Outer Loop, Manhattan, New York County, New York, 10025, United States"
3295,Central Park W & W 96 St,40.791,-73.965,"96th Street, Central Park Outer Loop, Manhattan, New York County, New York, 10025, United States"
3296,E 93 St & 2 Ave,40.782454175279874,-73.9489196240902,"220, East 93rd Street, Carnegie Hill, Manhattan Community Board 8, Manhattan, New York County, New York, 10128, United States"
3299,E 98 St & Park Ave,40.78813,-73.95206,"The Mount Sinai Hospital, 1, Central Park Outer Loop, Manhattan, New York County, New York, 10129, United States"
3301,Columbus Ave & W 95 St,40.7919557,-73.968087,"Citi Bike - Columbus Av / W 95 St, Columbus Avenue, Upper West Side, Manhattan Community Board 7, Manhattan, New York County, New York, 10025, United States"
3301,Columbus Ave & W 95 St,40.791,-73.968,"66, West 94th Street, Upper West Side, Manhattan Community Board 7, Manhattan, New York County, New York, 10025, United States"
3302,Columbus Ave & W 103 St,40.7969347,-73.9643412291,"850, Columbus Avenue, Bloomingdale, Manhattan Community Board 7, Manhattan, New York County, New York, 10025, United States"
3305,E 91 St & 2 Ave,40.78112229934166,-73.94965589046478,"Citi Bike E 91 Street & 2 Avenue, East 91st Street, Manhattan Community Board 8, Manhattan, New York County, New York, 10128, United States"
3305,E 91 St & 2 Ave,40.782,-73.95,"Yorkville Tower, East 92nd Street, Carnegie Hill, Manhattan Community Board 8, Manhattan, New York County, New York, 10128, United States"
3307,West End Ave & W 94 St,40.7941654,-73.974124,"711, West End Avenue, Upper West Side, Manhattan Community Board 7, Manhattan, New York County, New York, 10025, United States"
3307,West End Ave & W 94 St,40.794,-73.974,"700, West End Avenue, Upper West Side, Manhattan Community Board 7, Manhattan, New York County, New York, 10025, United States"
3309,E 97 St & 3 Ave,40.7859201,-73.94860294,"Citi Bike E 97 Street & 3 Avenue, East 97th Street, East Harlem, Manhattan Community Board 11, Manhattan, New York County, New York, 10129, United States"
3312,1 Ave & E 94 St,40.7817212,-73.94594,"First Avenue 99¬¢ Plus Corp, 1807, 1st Avenue, East Harlem, Manhattan Community Board 8, Manhattan, New York County, New York, 10128, United States"
3312,1 Ave & E 94 St,40.782,-73.947,"325, East 93rd Street, Manhattan Community Board 8, Manhattan, New York County, New York, 10128, United States"
3314,W 95 St & Broadway,40.7937704,-73.971888,"230, West 95th Street, Upper West Side, Manhattan Community Board 7, Manhattan, New York County, New York, 10025, United States"
3314,W 95 St & Broadway,40.794,-73.971,"202, West 96th Street, Upper West Side, Manhattan Community Board 7, Manhattan, New York County, New York, 10024, United States"
3318,2 Ave & E 96 St,40.7839636,-73.9471673,"1848, 2nd Avenue, East Harlem, Yorkville, Manhattan, New York County, New York, 10128, United States"
3320,Central Park West & W 100 St,40.79406660818552,-73.96286845207214,"400, Central Park West, Upper West Side, Manhattan Community Board 7, Manhattan, New York County, New York, 10025, United States"
3320,Central Park West & W 100 St,40.794,-73.962,"North Woods, Manhattan, New York County, New York, 10025-4403, United States"
3323,W 106 St & Central Park West,40.7981856,-73.9605909006,"New York Cancer Hospital, 455, Central Park West, Upper West Side, Manhattan Community Board 7, Manhattan, New York County, New York, 10025, United States"
3325,E 95 St & 3 Ave,40.7849032,-73.950503,"1700, 3rd Avenue, Carnegie Hill, Manhattan Community Board 8, Manhattan, New York County, New York, 10128, United States"
3327,3 Ave & E 100 St,40.7877214,-73.94728331,"1804, 3rd Avenue, East Harlem, Manhattan Community Board 11, Manhattan, New York County, New York, 10029, United States"
3328,W 100 St & Manhattan Ave,40.795,-73.9645,"55, West 100th Street, Upper West Side, Manhattan Community Board 7, Manhattan, New York County, New York, 10025, United States"
3328,W 100 St & Manhattan Ave,40.794,-73.965,"392, Central Park West, Upper West Side, Manhattan Community Board 7, Manhattan, New York County, New York, 10025, United States"
3331,Riverside Dr & W 104 St,40.8013434,-73.9711457439,"Tot Lot 105, Riverside Drive, Upper West Side, Manhattan Community Board 7, Manhattan, New York County, New York, 10025, United States"
3336,E 97 St & Madison Ave,40.787801,-73.953559,"Dunkin', East 97th Street, East Harlem, Manhattan Community Board 11, Manhattan, New York County, New York, 10129, United States"
3336,E 97 St & Madison Ave,40.788,-73.953,"53, East 97th Street, East Harlem, Manhattan Community Board 11, Manhattan, New York County, New York, 10029, United States"
3338,2 Ave & E 99 St,40.7862586,-73.94552579,"Citi Bike - 2 Av / E 99 St, 2nd Avenue, East Harlem, Manhattan Community Board 11, Manhattan, New York County, New York, 10028, United States"
3341,Central Park West & W 102 St,40.795346,-73.96186,"Citi Bike - CPW & W 102nd St, Central Park Outer Loop, Manhattan, New York County, New York, 10025-4403, United States"
3343,W 107 St & Columbus Ave,40.7997568,-73.9621128676,"Mobilization for Change Community Garden, West 107th Street, Upper West Side, Manhattan Community Board 7, Manhattan, New York County, New York, 10025-4403, United States"
3343,W 107 St & Columbus Ave,40.8,-73.962,"963, Columbus Avenue, Upper West Side, Manhattan Community Board 7, Manhattan, New York County, New York, 10025, United States"
3345,Madison Ave & E 99 St,40.78948541553215,-73.95242929458618,"Madison Avenue & East 99th Street, Madison Avenue, East Harlem, Manhattan Community Board 11, Manhattan, New York County, New York, 10037, United States"
3345,Madison Ave & E 99 St,40.788,-73.953,"53, East 97th Street, East Harlem, Manhattan Community Board 11, Manhattan, New York County, New York, 10029, United States"
3350,W 100 St & Broadway,40.7973721,-73.97041192,"250, West 100th Street, Upper West Side, Manhattan Community Board 7, Manhattan, New York County, New York, 10025, United States"
3350,W 100 St & Broadway,40.797,-73.971,"249, West 99th Street, Upper West Side, Manhattan Community Board 7, Manhattan, New York County, New York, 10025, United States"
3351,E 102 St & 1 Ave,40.7869946,-73.94164802,"Citi Bike - E 102 St / 1 Av, East 102nd Street, East Harlem, Manhattan Community Board 11, Manhattan, New York County, New York, 10029, United States"
3355,E 66 St & Madison Ave,40.76800889305947,-73.96845281124115,"Citi Bike - E 66 St & Madison Av, East 66th Street, Manhattan Community Board 8, Manhattan, New York County, New York, 10021, United States"
3356,Amsterdam Ave & W 66 St,40.7746671,-73.98470567,"122, Amsterdam Avenue, Upper West Side, Manhattan Community Board 7, Manhattan, New York County, New York, 10023, United States"
3356,Amsterdam Ave & W 66 St,40.776,-73.986,"221, West 66th Street, Upper West Side, Manhattan Community Board 7, Manhattan, New York County, New York, 10023, United States"
3357,W 106 St & Amsterdam Ave,40.8008363,-73.9664492472,"211, West 106th Street, Upper West Side, Manhattan Community Board 7, Manhattan, New York County, New York, 10025, United States"
3359,E 68 St & Madison Ave,40.7691572,-73.96703464,"Citi Bike - E 68 St & Madison Av, East 68th Street, Manhattan Community Board 8, Manhattan, New York County, New York, 10021, United States"
3360,Amsterdam Ave & W 79 St,40.7829391,-73.9786517,"Duane Reade, 380, Amsterdam Avenue, Upper West Side, Manhattan Community Board 7, Manhattan, New York County, New York, 10024, United States"
3360,Amsterdam Ave & W 79 St,40.782,-73.98,"210, West 77th Street, Upper West Side, Manhattan Community Board 7, Manhattan, New York County, New York, 10023, United States"
3362,Madison Ave & E 82 St,40.7781314,-73.96069399,"Public School 6, 45, East 81st Street, Manhattan Community Board 8, Manhattan, New York County, New York, 10028, United States"
3363,E 102 St & Park Ave,40.7904828,-73.95033068,"60, East 102nd Street, East Harlem, Manhattan Community Board 11, Manhattan, New York County, New York, 10029, United States"
3366,West End Ave & W 107 St,40.8021174,-73.9681805305,"Citibike - W End Av & W 107 St, West End Avenue, Upper West Side, Manhattan Community Board 7, Manhattan, New York County, New York, 10025-4403, United States"
3367,5 Ave & E 103 St,40.7922553,-73.95249933,"1219, 5th Avenue, East Harlem, Manhattan Community Board 11, Manhattan, New York County, New York, 10029, United States"
3367,5 Ave & E 103 St,40.791,-73.953,"1, East 101st Street, East Harlem, Manhattan Community Board 11, Manhattan, New York County, New York, 10029, United States"
3369,E 82 St & East End Ave,40.7724607,-73.9468208,"531, East 82nd Street, Manhattan Community Board 8, Manhattan, New York County, New York, 10028, United States"
3370,E 78 St & 2 Ave,40.7727966,-73.95577801,"Citi Bike, East 78th Street, Manhattan Community Board 8, Manhattan, New York County, New York, 10021, United States"
3370,E 78 St & 2 Ave,40.773,-73.956,"259, East 78th Street, Manhattan Community Board 8, Manhattan, New York County, New York, 10075, United States"
3372,E 74 St & 1 Ave,40.7689738,-73.95482273,"400, East 74th Street, Lenox Hill, Manhattan, New York County, New York, 10021, United States"
3374,Central Park North & Adam Clayton Powell Blvd,40.799484,-73.955613,"Central Park Outer Loop, Manhattan, New York County, New York, 10026, United States"
3374,Central Park North & Adam Clayton Powell Blvd,40.8,-73.956,"207, Central Park North, Manhattan Community Board 10, Manhattan, New York County, New York, 10026, United States"
3375,3 Ave & E 72 St,40.7699426,-73.96060712,"Citi bike - 3rd Avenue & East 72nd Street, 3rd Avenue, Carnegie Hill, Manhattan Community Board 8, Manhattan, New York County, New York, 10035, United States"
3376,E 65 St & 2 Ave,40.76471851944339,-73.96222069859505,"220, East 65th Street, Manhattan Community Board 8, Manhattan, New York County, New York, 10065, United States"
3378,E 76 St & Park Ave,40.773763,-73.96222088,"69, East 76th Street, Manhattan Community Board 8, Manhattan, New York County, New York, 10021, United States"
3378,E 76 St & Park Ave,40.773,-73.962,"101, East 75th Street, Lenox Hill, Manhattan, New York County, New York, 10021, United States"
3379,E 103 St & Lexington Ave,40.7903051,-73.94755757,"103rd Street, East 103rd Street, East Harlem, Manhattan Community Board 11, Manhattan, New York County, New York, 10029, United States"
3379,E 103 St & Lexington Ave,40.791,-73.947,"Hope Community's Modesto ""Tin"" Flores Garden, Lexington Avenue, East Harlem, Manhattan Community Board 11, Manhattan, New York County, New York, 10029, United States"
3383,Cathedral Pkwy & Broadway,40.804213,-73.96699104,"Citi Bike, Cathedral Parkway, Bloomingdale, Manhattan Community Board 7, Manhattan, New York County, New York, 10025-4403, United States"
3387,E 106 St & Madison Ave,40.7934337,-73.94945003,"Citi Bike - E 106 St / Madison Av, East 106th Street, East Harlem, Manhattan Community Board 11, Manhattan, New York County, New York, 10029, United States"
3387,E 106 St & Madison Ave,40.794,-73.95,"35, East 106th Street, East Harlem, Manhattan Community Board 11, Manhattan, New York County, New York, 10029, United States"
3390,E 109 St & 3 Ave,40.79329668,-73.9432083,"Citi Bike - E 109 St / 3 Av, East 109th Street, East Harlem, Manhattan Community Board 11, Manhattan, New York County, New York, 10029, United States"
3391,E 106 St & 1 Ave,40.7892529,-73.93956237,"East 106th Street & 1st Avenue, East 106th Street, East Harlem, Manhattan Community Board 11, Manhattan, New York County, New York, 10029, United States"
3400,E 110 St & Madison Ave,40.7961535,-73.94782145,"Citi Bike - E 110 St / Madison Av, East 110th Street, East Harlem, Manhattan Community Board 11, Manhattan, New York County, New York, 10029, United States"
3400,E 110 St & Madison Ave,40.797,-73.947,"Madison Avenue & East 111th Street, Madison Avenue, East Harlem, Manhattan Community Board 11, Manhattan, New York County, New York, 10037, United States"
3424,E 106 St & Lexington Ave,40.791976,-73.945993,"154, East 106th Street, East Harlem, Manhattan Community Board 11, Manhattan, New York County, New York, 10029, United States"
3425,2 Ave & E 104 St,40.7892105,-73.94370784,"Blake Hobbs Playground, East 103rd Street, East Harlem, Manhattan Community Board 11, Manhattan, New York County, New York, 10029, United States"
3427,Lafayette St & Jersey St,40.72430527250332,-73.99600982666016,"Lafayette Street, Little Italy, Manhattan, New York County, New York, 10012-3332, United States"
3427,Lafayette St & Jersey St S,40.72430527250332,-73.99600982666016,"Lafayette Street, Little Italy, Manhattan, New York County, New York, 10012-3332, United States"
3431,E 35 St & 3 Ave,40.746524,-73.977885,"165, East 35th Street, Murray Hill, Manhattan Community Board 6, Manhattan, New York County, New York, 10016, United States"
3434,W 88 St & West End Ave,40.79025417330419,-73.97718340158461,"300, West 88th Street, Upper West Side, Manhattan Community Board 7, Manhattan, New York County, New York, 10024, United States"
3435,Grand St & Elizabeth St,40.718822,-73.99596,"217, Grand Street, Lower East Side, Manhattan Community Board 2, Manhattan, New York County, New York, 10013, United States"
3435,Grand St & Elizabeth St,40.719,-73.995,"132, Bowery, Lower East Side, Manhattan Community Board 2, Manhattan, New York County, New York, 10013, United States"
3436,Greenwich St & Hubert St,40.721319,-74.010065,"28, Hubert Street, Tribeca, Manhattan Community Board 1, Manhattan, New York County, New York, 10013, United States"
3437,Riverside Dr & W 91 St,40.79313480986663,-73.97700369358063,"Citi Bike - Riverside Dr / W 92 St, Riverside Drive, Upper West Side, Manhattan Community Board 7, Manhattan, New York County, New York, 10024, United States"
3441,10 Hudson Yards,40.752957,-74.00264,"The High Line, High Line, Hudson Yards, Manhattan, New York County, New York, 10199, United States"
3443,W 52 St & 6 Ave,40.76132983124814,-73.97982001304626,"Theater District, Manhattan Community Board 5, Manhattan, New York County, New York, United States"
3443,W 52 St & 6 Ave,40.761,-73.98,"UBS Building, 1285, 6th Avenue, Theater District, Manhattan Community Board 5, Manhattan, New York County, New York, 10019, United States"
3457,E 58 St & Madison Ave,40.76302594280519,-73.97209525108337,"Citi Bike - E 58 St & Madison Ave, East 58th Street, Manhattan Community Board 5, Manhattan, New York County, New York, 10022, United States"
3458,W 55 St & 6 Ave,40.76309387270797,-73.9783501625061,"Midtown, Manhattan Community Board 5, Manhattan, New York County, New York, 10105, United States"
3459,E 53 St & 3 Ave,40.75763227739443,-73.96930575370789,"Lexington Avenue-53rd Street, 3rd Avenue, Turtle Bay, Manhattan Community Board 6, Manhattan, New York County, New York, 10035, United States"
3461,Murray St & Greenwich St,40.71485150526251,-74.01122331619263,"85, Murray Street, Tribeca, Manhattan Community Board 1, Manhattan, New York County, New York, 10007, United States"
3462,E 44 St & 2 Ave,40.75118387463277,-73.97138714790344,"248, East 44th Street, Turtle Bay, Manhattan Community Board 6, Manhattan, New York County, New York, 10017, United States"
3463,E 16 St & Irving Pl,40.735367055605394,-73.98797392845154,"109, East 16th Street, Union Square, Manhattan Community Board 5, Manhattan, New York County, New York, 10003, United States"
3463,E 16 St & Irving Pl,40.734,-73.989,"East 14th Street & Irving Place, East 14th Street, East Village, Manhattan Community Board 3, Manhattan, New York County, New York, 10003, United States"
3466,W 45 St & 6 Ave,40.75668720603179,-73.98257732391357,"72, West 45th Street, Midtown, Manhattan Community Board 5, Manhattan, New York County, New York, 10036, United States"
3466,W 45 St & 6 Ave -,40.75668720603179,-73.98257732391357,"72, West 45th Street, Midtown, Manhattan Community Board 5, Manhattan, New York County, New York, 10036, United States"
3467,W Broadway & Spring Street,40.72494672359416,-74.00165855884552,"420, West Broadway, Manhattan Community Board 2, Manhattan, New York County, New York, 10012, United States"
3467,W Broadway & Spring St,40.72494672359416,-74.00165855884552,"420, West Broadway, Manhattan Community Board 2, Manhattan, New York County, New York, 10012, United States"
3467,W Broadway & Spring St [temporarily removed],40.72494672359416,-74.00165855884552,"420, West Broadway, Manhattan Community Board 2, Manhattan, New York County, New York, 10012, United States"
3472,W 15 St & 10 Ave,40.742753828659026,-74.00747358798981,"10th Avenue & West 15th Street, High Line, Chelsea District, Manhattan, New York County, New York, 100014, United States"
3472,W 15 St & 10 Ave,40.743,-74.007,"Chelsea Market, 75, 9th Avenue, Chelsea District, Manhattan, New York County, New York, 10011, United States"
3474,6 Ave & Spring St,40.7252556952547,-74.00412082672119,"155, 6th Avenue, Hudson Square, Manhattan Community Board 2, Manhattan, New York County, New York, 10013, United States"
3479,Picnic Point,40.68512559515415,-74.02535319328308,"928, Craig Road South, Nolan Park, Manhattan Community Board 1, Manhattan, New York County, New York, 10004, United States"
3489,Gold St & Frankfort St,40.71069994631387,-74.00354146957397,"NYC Housing Preservation and Development (HPD), 100, Gold Street, Financial District, Manhattan Community Board 1, Manhattan, New York County, New York, 10038, United States"
3490,E 116 St & 2 Ave,40.796879,-73.937261,"Edward Corsi Houses, 306, East 117th Street, East Harlem, Manhattan Community Board 11, Manhattan, New York County, New York, 10035, United States"
3490,E 116 St & 2 Ave,40.797,-73.938,"East 116th Street & 2nd Avenue, East 116th Street, East Harlem, Manhattan Community Board 11, Manhattan, New York County, New York, 10029, United States"
3491,E 118 St & 1 Ave,40.79747,-73.93504,"P.S. 155 Playground, East 118th Street, East Harlem, Manhattan Community Board 11, Manhattan, New York County, New York, 10035, United States"
3492,E 118 St & Park Ave,40.8005385,-73.9419949,"111, East 118th Street, East Harlem, Manhattan Community Board 11, Manhattan, New York County, New York, 10035, United States"
3493,E 118 St & 3 Ave,40.799139,-73.9389152,"Citi Bike - 3 Av / E 118 St, East 118th Street, East Harlem, Manhattan Community Board 11, Manhattan, New York County, New York, 10035, United States"
3494,E 115 St & Lexington Ave,40.797911,-73.9423,"Citi Bike Lexington Avenue/E 115th Street, East 115th Street, East Harlem, Manhattan Community Board 11, Manhattan, New York County, New York, 10029, United States"
3495,E 114 St & 1 Ave,40.7945663,-73.9362541,"401, East 114th Street, East Harlem, Manhattan Community Board 11, Manhattan, New York County, New York, 10029, United States"
3496,1 Ave & E 110 St,40.7923272,-73.9383,"Blue Sky, 2135, 1st Avenue, East Harlem, Manhattan Community Board 11, Manhattan, New York County, New York, 10029, United States"
3497,Pleasant Ave & E 116 St,40.7949879,-73.9333349,"Citi Bike - Pleasant Av / E 116 St, Pleasant Avenue, East Harlem, Manhattan Community Board 11, Manhattan, New York County, New York, 10035, United States"
3498,Pleasant Ave & E 120 St,40.7974772,-73.9311847,"505, East 120th Street, East Harlem, Manhattan Community Board 11, Manhattan, New York County, New York, 10035, United States"
3499,2 Ave & E 122 St,40.8006721,-73.9349,"2370, 2nd Avenue, East Harlem, Manhattan Community Board 11, Manhattan, New York County, New York, 10035, United States"
3500,E 115 St & Madison Ave,40.7989445,-73.944846,"Citi Bike, East 115th Street, East Harlem, Manhattan Community Board 11, Manhattan, New York County, New York, 10029, United States"
3501,E 118 St & Madison Ave,40.8014866,-73.9442507,"21, East 118th Street, East Harlem, Manhattan Community Board 11, Manhattan, New York County, New York, 10035, United States"
3502,Lexington Ave & E 111 St,40.7954121,-73.9441232,"110th Street, Lexington Avenue, East Harlem, Manhattan Community Board 11, Manhattan, New York County, New York, 10037, United States"
3503,Madison Ave & E 120 St,40.80295,-73.942954,"Citi Bike - Madison Av / E 120 St, Madison Avenue, East Harlem, Manhattan Community Board 11, Manhattan, New York County, New York, 10037, United States"
3504,E 123 St & Lexington Ave,40.8029263,-73.9379,"170, East 123rd Street, East Harlem, Manhattan Community Board 11, Manhattan, New York County, New York, 10035, United States"
3505,Lexington Ave & E 127 St,40.805726,-73.936322,"Citi Bike - Lexington Av & E 127 St, Lexington Avenue, East Harlem, Manhattan Community Board 11, Manhattan, New York County, New York, 10037, United States"
3506,Lexington Ave & E 120 St,40.8013066,-73.9398167,"Citi Bike, Lexington Avenue, East Harlem, Manhattan Community Board 11, Manhattan, New York County, New York, 10037, United States"
3506,Lexington Ave & E 120 St,40.8,-73.941,"The Parker At Lexington Heights, East 118th Street, East Harlem, Manhattan Community Board 11, Manhattan, New York County, New York, 10035, United States"
3507,Park Ave & E 124 St,40.8045555,-73.9396861,"Harlem‚Äì125th Street, Park Avenue, East Harlem, Manhattan Community Board 11, Manhattan, New York County, New York, 10037, United States"
3508,St Nicholas Ave & Manhattan Ave,40.809725,-73.953149,"270, Saint Nicholas Avenue, Manhattan Community Board 10, Manhattan, New York County, New York, 10027, United States"
3509,Lenox Ave & W 115 St,40.8011939,-73.9500739,"Citi Bike, Malcolm X Boulevard, Manhattan Community Board 10, Manhattan, New York County, New York, 10037, United States"
3509,Lenox Ave & W 115 St,40.8,-73.95,"70, Malcolm X Boulevard, Manhattan Community Board 10, Manhattan, New York County, New York, 10026, United States"
3510,Adam Clayton Powell Blvd & W 123 St,40.8078316,-73.949373,"2070, Adam Clayton Powell Jr. Boulevard, Manhattan Community Board 10, Manhattan, New York County, New York, 10027, United States"
3510,Adam Clayton Powell Blvd & W 123 St,40.809,-73.95,"229, West 124th Street, Manhattan Community Board 10, Manhattan, New York County, New York, 10027, United States"
3511,Adam Clayton Powell Blvd & W 115 St,40.802535,-73.9532423,"1890, Adam Clayton Powell Jr. Boulevard, Manhattan Community Board 10, Manhattan, New York County, New York, 10026, United States"
3518,Lenox Ave & W 126 St,40.808442,-73.9452087,"125th Street, Malcolm X Boulevard, Manhattan Community Board 10, Manhattan, New York County, New York, 10037, United States"
3520,Adam Clayton Powell Blvd & W 118 St,40.804372,-73.951475,"1951, Adam Clayton Powell Jr. Boulevard, Manhattan Community Board 10, Manhattan, New York County, New York, 10026, United States"
3521,Lenox Ave & W 111 St,40.7987859,-73.9523,"Citi Bike - Malcolm X Bl / W 111 St, Malcolm X Boulevard, Manhattan Community Board 10, Manhattan, New York County, New York, 10037, United States"
3527,5 Ave & E 126 St,40.80698,-73.941747,"2037A, 5th Avenue, East Harlem, Manhattan Community Board 11, Manhattan, New York County, New York, 10035, United States"
3529,Lenox Ave & W 130 St,40.8107922,-73.9430681,"380, Malcolm X Boulevard, Manhattan Community Board 10, Manhattan, New York County, New York, 10027, United States"
3531,Frederick Douglass Blvd & W 129 St,40.8125511,-73.9492286,"Harlem Children's Zone - Promise Academy, 245, West 129th Street, Harlem, Manhattan, New York County, New York, 10027, United States"
3533,St. Nicholas Ave & W 126 St,40.8114323,-73.9518776,"125th Street, Saint Nicholas Avenue, Manhattan Community Board 10, Manhattan, New York County, New York, 10040, United States"
3534,Frederick Douglass Blvd & W 117 St,40.805159,-73.954692,"116th Street, West 116th Street, Manhattan Community Board 10, Manhattan, New York County, New York, 10026, United States"
3535,Mt Morris Park W & W 120 St,40.804038,-73.945925,"Citi Bike - Mt Morris Pk W / W 120 St, Mt Morris Park West, Manhattan Community Board 11, Manhattan, New York County, New York, 10027, United States"
3536,W 116 St & Broadway,40.8082,-73.9641,"Halal Cart, West 116th Street, Manhattan Community Board 9, Manhattan, New York County, New York, 10027, United States"
3538,W 110 St & Amsterdam Ave,40.802692,-73.96295,"1021, Amsterdam Avenue, Manhattan Community Board 9, Manhattan, New York County, New York, 10025, United States"
3539,W 116 St & Amsterdam Ave,40.8067581,-73.9607082,"Columbia University, West 116th Street, Manhattan Community Board 9, Manhattan, New York County, New York, 10027, United States"
3539,W 116 St & Amsterdam Ave,40.806,-73.962,"Columbia University, West 116th Street, Manhattan Community Board 9, Manhattan, New York County, New York, 10027, United States"
3540,Morningside Ave & W 123 St,40.81,-73.9551508,"Citi Bike, Morningside Avenue, Manhattan Community Board 9, Manhattan, New York County, New York, 10027, United States"
3541,Amsterdam Ave & W 125 St,40.813358,-73.956461,"Amsterdam Avenue & West 125th Street, Amsterdam Avenue, Manhattanville, Manhattan Community Board 9, Manhattan, New York County, New York, 10027-4840, United States"
3542,Amsterdam Ave & W 119 St,40.8086249,-73.9596214,"Citi Bike, Amsterdam Avenue, Manhattan Community Board 9, Manhattan, New York County, New York, 10115, United States"
3542,Amsterdam Ave & W 119 St,40.809,-73.959,"The Poinsettia, West 120th Street, Manhattan Community Board 9, Manhattan, New York County, New York, 10027, United States"
3543,Morningside Dr & Amsterdam Ave,40.81028506306003,-73.95736455917358,"Citi Bike, Morningside Drive, Manhattan Community Board 9, Manhattan, New York County, New York, 10027, United States"
3545,Broadway & W 122 St,40.8120562,-73.9612547,"Manhattan School of Music, Broadway, Manhattan Community Board 9, Manhattan, New York County, New York, 10115, United States"
3547,Broadway & Moylan Pl,40.8143256,-73.9590255,"Citi Bike - Broadway / La Salle St, Broadway, Manhattanville, Manhattan Community Board 9, Manhattan, New York County, New York, 10115, United States"
3547,Broadway & Moylan Pl,40.815,-73.959,"125th Street, Broadway, Manhattan Community Board 9, Manhattan, New York County, New York, 10115, United States"
3551,3 Ave & E 112 St,40.795508,-73.941606,"2039, 3rd Avenue, East Harlem, Manhattan Community Board 11, Manhattan, New York County, New York, 10029, United States"
3552,W 113 St & Broadway,40.805973,-73.964928,"Broadway Residence Hall, 2900, Broadway, Manhattan Community Board 9, Manhattan, New York County, New York, 10025, United States"
3552,W 113 St & Broadway,40.806,-73.965,"LinkNYC, West 113th Street, Manhattan Community Board 9, Manhattan, New York County, New York, 10025, United States"
3553,Frederick Douglass Blvd & W 112 St,40.801694,-73.957145,"2050, Frederick Douglass Boulevard, Manhattan Community Board 10, Manhattan, New York County, New York, 10026, United States"
3553,Frederick Douglass Blvd & W 112 St,40.803,-73.956,"281, West 114th Street, Harlem, Manhattan, New York County, New York, 10026, United States"
3622,E 128 St & Madison Ave,40.80756,-73.939182,"39, East 128th Street, East Harlem, Manhattan Community Board 11, Manhattan, New York County, New York, 10035, United States"
3622,E 128 St & Madison Ave,40.809,-73.938,"49, East 130th Street, East Harlem, Manhattan Community Board 11, Manhattan, New York County, New York, 10037, United States"
3623,W 120 St & Claremont Ave,40.8109494,-73.9634,"Citi Bike, West 120th Street, Manhattan Community Board 9, Manhattan, New York County, New York, 10027, United States"
3628,Lenox Ave & W 117 St,40.8025566,-73.9490782,"42, West 117th Street, East Harlem, Manhattan Community Board 10, Manhattan, New York County, New York, 10026, United States"
3629,Adam Clayton Powell Blvd & W 126 St,40.809495347779475,-73.94776493310928,"Adam Clayton Powell Jr Boulevard & West 125th Street, Adam Clayton Powell Jr. Boulevard, Manhattan Community Board 10, Manhattan, New York County, New York, 10027, United States"
3629,Adam Clayton Powell Blvd & W 126 St,40.809,-73.947,"Adam Clayton Powell Jr. State Office Building, 163, West 126th Street, Manhattanville, Manhattan Community Board 10, Manhattan, New York County, New York, 10027, United States"
3630,Frederick Douglass Blvd & W 115 St,40.8038654,-73.9559308,"301, West 115th Street, Manhattan Community Board 10, Manhattan, New York County, New York, 10026, United States"
3630,Frederick Douglass Blvd & W 115 St,40.803,-73.956,"281, West 114th Street, Harlem, Manhattan, New York County, New York, 10026, United States"
3635,W 36 St & 9 Ave,40.75462324029105,-73.99516761302948,"371, West 36th Street, Garment District, Manhattan Community Board 4, Manhattan, New York County, New York, 10018, United States"
3641,Broadway & W 25 St,40.74286877312112,-73.98918628692627,"USPS, General Worth Square, Manhattan Community Board 5, Manhattan, New York County, New York, 10001-7604, United States"
3649,W 129 St & Convent Ave,40.814394437915816,-73.95324736833572,"440, West 129th Street, Manhattanville, Manhattan Community Board 9, Manhattan, New York County, New York, 10027, United States"
3656,E 2 St & Avenue A,40.72307749068673,-73.98583620786667,"145, East 2nd Street, East Village, Manhattan Community Board 3, Manhattan, New York County, New York, 10009, United States"
3656,E 2 St & Avenue A,40.722,-73.986,"Public School 20, 166, Essex Street, Lower East Side, Manhattan Community Board 3, Manhattan, New York County, New York, 10002, United States"
3658,W 18 St & 9 Ave,40.7435337324616,-74.00367558002472,"Citi Bike - W 18 St & 9 Ave, West 18th Street, Chelsea, Manhattan, New York County, New York, 10011, United States"
3659,W 17 St & 9 Ave,40.74294891660091,-74.00413691997528,"400, West 17th Street, Chelsea, Manhattan, New York County, New York, 10011, United States"
3660,W 16 St & 8 Ave,40.741021509002664,-74.001384973526,"260, West 16th Street, Chelsea District, Manhattan, New York County, New York, 10011, United States"
3664,North Moore St & Greenwich St,40.72019521437465,-74.0103006362915,"Citi Bike - Greenwich St & N Moore St, North Moore Street, Tribeca, Manhattan Community Board 1, Manhattan, New York County, New York, 10013, United States"
3671,E 81 St & 2 Ave,40.774779448957275,-73.95427465438843,"Citi Bike, East 81st Street, Manhattan Community Board 8, Manhattan, New York County, New York, 10028, United States"
3675,3 Ave & E 95 St,40.78459679884891,-73.94968539476395,"Citi Bike - 3 Av / E 95 St, 3rd Avenue, Carnegie Hill, Manhattan Community Board 8, Manhattan, New York County, New York, 10035, United States"
3680,E 43 St & 5 Ave,40.754120810779256,-73.98025184869766,"Sidewalk Clock at 522 5th Avenue, East 43rd Street, Midtown East, Manhattan, New York County, New York, 10017, United States"
3680,E 43 St & 5 Ave,40.755,-73.98,"530 5th Avenue, 530, 5th Avenue, Midtown, Manhattan Community Board 5, Manhattan, New York County, New York, 10036, United States"
3684,W 12 St & W 4 St,40.73756121181137,-74.00398269295692,"283, West 12th Street, West Village, Manhattan Community Board 2, Manhattan, New York County, New York, 10014, United States"
3686,Gansevoort St & Hudson St,40.73944820130403,-74.00507032871246,"Citi Bike - Gansevoort St / Hudson St, Gansevoort Street, West Village, Manhattan Community Board 2, Manhattan, New York County, New York, 100014, United States"
3687,E 33 St & 1 Ave,40.74322681432173,-73.97449783980846,"Citi Bike - E 33 St & 1 Ave, East 33rd Street, Kips Bay, Manhattan Community Board 6, Manhattan, New York County, New York, 10016, United States"
3687,E 33 St & 1 Ave,40.743,-73.974,"Perelman Center for Emergency Services, 596, 1st Avenue, Kips Bay, Manhattan Community Board 6, Manhattan, New York County, New York, 10016, United States"
3689,W 104 St & Amsterdam Ave,40.799041392882984,-73.96649479866028,"154, West 104th Street, Upper West Side, Manhattan Community Board 7, Manhattan, New York County, New York, 10025, United States"
3690,Park Pl & Church St,40.71334184275907,-74.00935515761375,"Chambers Street‚ÄìWorld Trade Center‚ÄìPark Place‚ÄìCortlandt Street, Broadway, Lower Manhattan, Manhattan Community Board 1, Manhattan, New York County, New York, 10279, United States"
3690,Park Pl & Church St,40.713,-74.01,"100 Church Street, 100, Church Street, Tribeca, Manhattan Community Board 1, Manhattan, New York County, New York, 10013, United States"
3697,W 64 St & Thelonious Monk Circle,40.77515953434235,-73.98918695747852,"Thelonius Monk Circle, Upper West Side, Manhattan Community Board 7, Manhattan, New York County, New York, 10069, United States"
3699,W 50 St & 9 Ave,40.763604677958625,-73.98917958140373,"West 50th Street & 9th Avenue, West 50th Street, Theater District, Manhattan Community Board 4, Manhattan, New York County, New York, 10019, United States"
3699,W 50 St & 9 Ave,40.764,-73.989,"751, 9th Avenue, Manhattan Community Board 4, Manhattan, New York County, New York, 10019, United States"
3701,Cliff St & Fulton St,40.70831794366396,-74.00504082441329,"29, Cliff Street, Financial District, Manhattan Community Board 1, Manhattan, New York County, New York, 10038, United States"
3701,Cliff St & Fulton St (Old),40.70831794366396,-74.00504082441329,"29, Cliff Street, Financial District, Manhattan Community Board 1, Manhattan, New York County, New York, 10038, United States"
3705,Thompson St & Bleecker St,40.72840059450829,-73.99968780577183,"187, Thompson Street, University Village, Manhattan Community Board 2, Manhattan, New York County, New York, 10012, United States"
3707,Lexington Ave & E 26 St,40.741459,-73.983293,"Lexington Ave & E 26 St, Lexington Avenue, Kips Bay, Manhattan Community Board 6, Manhattan, New York County, New York, 10037, United States"
3707,Lexington Ave & E 26 St,40.74,-73.983,"Baruch College Newman Vertical Campus, 55, Lexington Avenue, Kips Bay, Manhattan Community Board 6, Manhattan, New York County, New York, 10010, United States"
3707,Lexington Ave & E 26 St [temporarily removed],40.741459,-73.983293,"Lexington Ave & E 26 St, Lexington Avenue, Kips Bay, Manhattan Community Board 6, Manhattan, New York County, New York, 10037, United States"
3708,W 13 St & 5 Ave,40.735445,-73.99431,"The New School, 72, 5th Avenue, Washington Square Village, Manhattan Community Board 2, Manhattan, New York County, New York, 10011, United States"
3709,W 15 St & 6 Ave,40.738046142482766,-73.99642959237099,"6th Avenue / 14th Street, West 15th Street, Chelsea, Manhattan, New York County, New York, 10011, United States"
3711,E 13 St & Avenue A,40.72966729392978,-73.98067966103554,"Citi Bike - E 13 St & Avenue A, East 13th Street, East Village, Manhattan Community Board 3, Manhattan, New York County, New York, 10009, United States"
3711,E 13 St & Avenue A,40.731,-73.98,"14th Street Loop, Stuyvesant Town, Manhattan, New York County, New York, 10009, United States"
3712,W 35 St & Dyer Ave,40.754691750226016,-73.99740189313889,"444, West 35th Street, Garment District, Manhattan Community Board 4, Manhattan, New York County, New York, 10001, United States"
3718,E 11 St & Avenue B,40.72746420692392,-73.97950418293476,"601, East 11th Street, East Village, Manhattan Community Board 3, Manhattan, New York County, New York, 10009, United States"
3724,7 Ave & Central Park South,40.7667405590595,-73.9790689945221,"925, 7th Avenue, Midtown, Manhattan Community Board 5, Manhattan, New York County, New York, 10019, United States"
3724,7 Ave & Central Park South,40.767,-73.98,"210, Central Park South, Manhattan Community Board 5, Manhattan, New York County, New York, 10019, United States"
3725,2 Ave & E 72 St,40.7687620293096,-73.95840793848038,"72nd Street & 2nd Avenue at Northwest Corner, 2nd Avenue, Manhattan Community Board 8, Manhattan, New York County, New York, 10035, United States"
3731,W 47 St & 6 Ave,40.758397,-73.98255,"Rockefeller Center, 45, Rockefeller Plaza, Midtown, Manhattan Community Board 5, Manhattan, New York County, New York, 10111, United States"
3733,Avenue C & E 18 St,40.730563,-73.973984,"Citi Bike, Avenue C, Manhattan Community Board 6, Manhattan, New York County, New York, 10009:10010, United States"
3734,E 58 St &  1 Ave (NW Corner),40.759125,-73.962658,"357, East 58th Street, Manhattan Community Board 6, Manhattan, New York County, New York, 10022, United States"
3734,E 58 St &  1 Ave (NW Corner),40.758,-73.962,"419, East 57th Street, Manhattan Community Board 6, Manhattan, New York County, New York, 10022, United States"
3735,W 30 St & 10 Ave,40.752694,-74.002353,"The Shed, West 30th Street, Manhattan Community Board 4, Manhattan, New York County, New York, 10001, United States"
3736,E 12 St & Ave C,40.727243,-73.976831,"656, East 12th Street, East Village, Manhattan Community Board 3, Manhattan, New York County, New York, 10009, United States"
3737,Stanton St & Norfolk St,40.720747,-73.986274,"Lower East Side Preparatory High School, 145, Stanton Street, Lower East Side, Manhattan Community Board 3, Manhattan, New York County, New York, 10002, United States"
3738,Delancey St & Eldridge St,40.719383,-73.991479,"53, Eldridge Street, Lower East Side, Manhattan Community Board 3, Manhattan, New York County, New York, 10002, United States"
3739,Perry St & Greenwich Ave,40.735918,-74.000939,"1, Perry Street, West Village, Manhattan Community Board 2, Manhattan, New York County, New York, 10014, United States"
3740,W Broadway & W Houston St,40.726378,-74.000472,"464, West Broadway, Manhattan Community Board 2, Manhattan, New York County, New York, 10012, United States"
3744,1 Ave & E 5 St,40.725864,-73.986389,"Citi Bike - 2nd Ave / E 6 St, 1st Avenue, East Village, Manhattan Community Board 3, Manhattan, New York County, New York, 10002-1013, United States"
3746,6 Ave & Broome St,40.724308321602166,-74.00473035871983,"Citi Bike - 6 Ave & Broome St, Clark Street, Hudson Square, Manhattan Community Board 2, Manhattan, New York County, New York, 10014-3621, United States"
3746,6 Ave & Broome St,40.725,-74.004,"10 Sullivan, 120, 6th Avenue, University Village, SoHo, Manhattan, New York County, New York, 10012, United States"
3747,E 84 St & 3 Ave,40.77755374298887,-73.95512759685516,"Dramatics NYC, East 84th Street, Upper East Side, Manhattan, New York County, New York, 10028, United States"
3749,Lexington Ave & E 36 St,40.7475739589548,-73.9788007736206,"Citi Bike, Lexington Avenue, Murray Hill, Manhattan Community Board 6, Manhattan, New York County, New York, 10037, United States"
3783,Cliff St & Fulton St,40.70838,-74.00495,"32, Cliff Street, Financial District, Manhattan Community Board 1, Manhattan, New York County, New York, 10038, United States"
3785,W 42 St & 6 Ave,40.75492,-73.98455,"1095 Avenue Of The Americas, 1095, 6th Avenue, Theater District, Manhattan Community Board 5, Manhattan, New York County, New York, 10019, United States"
3785,W 42 St & 6 Ave,40.755,-73.986,"The Knickerbocker Hotel, 6, West 41st Street, Theater District, Times Square, Manhattan, New York County, New York, 10036, United States"
3786,Division St & Bowery,40.714193,-73.996732,"Confucius Plaza, 40, Division Street, Manhattan Community Board 3, Manhattan, New York County, New York, 10002, United States"
3788,E 12 St & 4 Av,40.73269,-73.98974,"115, 4th Avenue, East Village, Manhattan Community Board 3, Manhattan, New York County, New York, 10003, United States"
3793,Stuyvesant Walk & 1 Av Loop,40.732339777151054,-73.97898383438587,"Stuyvesant Walk, Stuyvesant Town, Manhattan, New York County, New York, 10009, United States"
3798,W 40 St & 5 Ave,40.752269,-73.982079,"Knox Hat Building, West 40th Street, Midtown South, Manhattan Community Board 5, Manhattan, New York County, New York, 10018, United States"
3798,W 40 St & 5 Ave,40.752,-73.983,"1, West 39th Street, Midtown South, Manhattan Community Board 5, Manhattan, New York County, New York, 10018, United States"
3799,6 Ave & W 34 St,40.74964,-73.98805,"34th Street‚ÄìHerald Square, PATH - 33rd Street entrance (closed), Chelsea District, Manhattan, New York County, New York, 10001-2062, United States"
3805,E 80 St & Park Ave,40.776173,-73.959757,"100, East 80th Street, Manhattan Community Board 8, Manhattan, New York County, New York, 10075, United States"
3809,W 55 St & 6 Ave,40.763201,-73.978458,"101, West 55th Street, Midtown, Manhattan Community Board 5, Manhattan, New York County, New York, 10019, United States"
3809,W 55 St & 6 Ave,40.763189,-73.978434,"101, West 55th Street, Midtown, Manhattan Community Board 5, Manhattan, New York County, New York, 10019, United States"
3810,Central Park West & W 82 St,40.782593,-73.971211,"Central Park West & West 81st Street, Central Park Outer Loop, Manhattan, New York County, New York, 10024, United States"
3812,University Pl & E 14 St,40.734814,-73.992085,"126, University Place, Union Square, Manhattan Community Board 2, Manhattan, New York County, New York, 10003, United States"
3812,University Pl & E 14 St,40.734,-73.992,"37, East 12th Street, Washington Square Village, Manhattan Community Board 2, Manhattan, New York County, New York, 10003, United States"
3813,W 20 St & 10 Ave,40.745686,-74.005141,"415, West 20th Street, Chelsea District, Manhattan, New York County, New York, 10011, United States"
3814,E 56 St & Madison Ave,40.761573,-73.972628,"Citi Bike - E 56 St & Madison Ave, East 56th Street, Manhattan Community Board 5, Manhattan, New York County, New York, 10022, United States"
3815,E 51 St & 2 Ave,40.755293,-73.967641,"306, East 51st Street, Turtle Bay, Manhattan Community Board 6, Manhattan, New York County, New York, 10022, United States"
3881,12 Ave & W 125 St,40.818299,-73.960405,"Citi Bike, 12th Avenue, Manhattanville, Manhattan Community Board 9, Manhattan, New York County, New York, 10027, United States"
3894,8 Ave & W 16 St,40.740983,-74.001702,"14th Street, 8th Avenue, West Village, Chelsea, Manhattan, New York County, New York, 10017, United States"
3898,E 63 St & 3 Ave,40.763954,-73.9646,"200, East 63rd Street, Manhattan Community Board 8, Manhattan, New York County, New York, 10065, United States"
3905,4 Ave & E 12 St,40.732647,-73.99011,"112, 4th Avenue, East Village, Manhattan Community Board 2, Manhattan, New York County, New York, 10003, United States"
3906,West St & Liberty St,40.711444,-74.014847,"120, West Street, Battery Park City, Manhattan Community Board 1, Manhattan, New York County, New York, 10281, United States"
3908,Battery Pl & Greenwich St,40.70463,-74.01507,"Netherland Monument, Battery Place, Financial District, Manhattan Community Board 1, Manhattan, New York County, New York, 10275, United States"
3912,MTL-AOS-5.1,40.7903,-73.9597,"North Meadow Recreation Center, 97th Street Transverse Road, Manhattan, New York County, New York, 10025, United States"
3914,West End Ave & W 78 St,40.783786,-73.981687,"383, West End Avenue, Upper West Side, Manhattan Community Board 7, Manhattan, New York County, New York, 10024, United States"
3916,Pearl St & Peck Slip,40.708485,-74.002751,"295, Pearl Street, Financial District, Manhattan Community Board 1, Manhattan, New York County, New York, 10038, United States"
3918,Avenue D & E 8 St,40.72387,-73.975767,"118, Avenue D, East Village, Manhattan Community Board 3, Manhattan, New York County, New York, 10009, United States"
3919,Wall St & South St,40.70437,-74.00637,"111 Wall Street, 111, Wall Street, Financial District, Manhattan Community Board 1, Manhattan, New York County, New York, 10005, United States"
3920,E 132 St & Madison Ave,40.810224,-73.937195,"2101, Madison Avenue, East Harlem, Manhattan Community Board 11, Manhattan, New York County, New York, 10037, United States"
3926,5 Ave & W 131 St,40.81014,-73.93973,"2142, 5th Avenue, East Harlem, Manhattan Community Board 10, Manhattan, New York County, New York, 10037, United States"
3927,Lenox Ave & W 133 St,40.81296,-73.941878,"467, Malcolm X Boulevard, Harlem, Manhattan, New York County, New York, 10030, United States"
3928,Adam Clayton Powell Blvd & W 132 St,40.813539,-73.94521,"2244, Adam Clayton Powell Jr. Boulevard, Harlem, Manhattan, New York County, New York, 10027, United States"
3934,St Nicholas Ave & E 134 St,40.816234,-73.948222,"319, West 134th Street, Manhattanville, Harlem, Manhattan, New York County, New York, 10030, United States"
3935,Amsterdam Ave & W 131 St,40.816355,-73.954295,"Amsterdam Avenue & West 131st Street, Amsterdam Avenue, Manhattanville, Manhattan Community Board 9, Manhattan, New York County, New York, 10027, United States"
3936,W 133 St & 12 Ave,40.820003,-73.959089,"Citi Bike - W 133 St / 12 Av, West 133rd Street, Manhattanville, Manhattan Community Board 9, Manhattan, New York County, New York, 10027, United States"
3942,Broadway & W 133 St,40.8190344,-73.956155999999993,"3333 Broadway, 3333, Broadway, Manhattanville, Manhattan Community Board 9, Manhattan, New York County, New York, 10027-4840, United States"
3944,Convent Ave & W 135 St,40.818215,-73.950988,"The City College of New York, 160, Convent Avenue, Manhattan Community Board 9, Manhattan, New York County, New York, 10031, United States"
3945,Amsterdam Ave & W 136 St,40.819746,-73.951819,"502, West 136th Street, Hamilton Heights, Manhattan, New York County, New York, 10031, United States"
3946,St Nicholas Ave & W 137 St,40.818477,-73.947568,"135th Street, Edgecombe Avenue, Manhattan Community Board 10, Manhattan, New York County, New York, 10030, United States"
3953,W 147 St & Adam Clayton Powell Blvd,40.82281,-73.937413,"2541, Adam Clayton Powell Jr. Boulevard, Harlem, Manhattan, New York County, New York, 10039, United States"
3959,Edgecombe Ave & W 145 St,40.823498,-73.94386,"230, Edgecombe Avenue, Harlem, Manhattan, New York County, New York, 10030, United States"
3960,Hamilton Pl & W 140 St,40.822756,-73.951346,"538, West 140th Street, Manhattan Community Board 9, Manhattan, New York County, New York, 10031, United States"
3967,W 146 St & Broadway,40.826969,-73.949738,"554, West 146th Street, Manhattan Community Board 9, Manhattan, New York County, New York, 10031, United States"
3973,St Nicholas Ave & W 150 St,40.827212,-73.942722,"408, West 150th Street, Manhattan Community Board 9, Manhattan, New York County, New York, 10031, United States"
3980,Amsterdam Ave & W 152 St,40.829523,-73.944279,"Carmansville Playground, Amsterdam Avenue, Manhattan Community Board 9, Manhattan, New York County, New York, 10040, United States"
3981,Harlem River Dr & W 155 St,40.830476,-73.939929,"Harlem River Drive Greenway, Washington Heights, Manhattan, New York County, New York, 10032, United States"
3984,W 140 St & Riverside Dr,40.824013,-73.954743,"629, West 140th Street, Manhattan Community Board 9, Manhattan, New York County, New York, 10031, United States"
3988,E 128 St & 3 Ave,40.805631,-73.934077,"200, East 128th Street, East Harlem, Manhattan Community Board 11, Manhattan, New York County, New York, 10035, United States"
3992,W 169 St & Fort Washington Ave,40.8428422,-73.9421253,"701, West 169th Street, Manhattan Community Board 12, Manhattan, New York County, New York, 10032, United States"
3993,W 59 St & West End Ave,40.771771,-73.990625,"605, West 59th Street, Upper West Side, Manhattan Community Board 7, Manhattan, New York County, New York, 10019, United States"
3994,2 Ave & E 125 St,40.802554,-73.933509,"2428, 2nd Avenue, East Harlem, Manhattan Community Board 11, Manhattan, New York County, New York, 10035, United States"
3995,5 Ave & E 135 St,40.812191,-73.937838,"2201, 5th Avenue, East Harlem, Manhattan Community Board 11, Manhattan, New York County, New York, 10037, United States"
3995,5 Ave & E 135 St,40.812,-73.938,"2201, 5th Avenue, East Harlem, Manhattan Community Board 11, Manhattan, New York County, New York, 10037, United States"
3996,Lexington Ave & E 128 St,40.806414,-73.936085,"112, East 128th Street, East Harlem, Manhattan Community Board 11, Manhattan, New York County, New York, 10035, United States"
3997,5 Av & W 139 St,40.815484,-73.935856,"2, West 139th Street, East Harlem, Harlem, Manhattan, New York County, New York, 10037, United States"
3998,W 135 St & Lenox Terrace Pl,40.813619,-73.939336,"NYC Health + Hospitals/Harlem, 506, Malcolm X Boulevard, Harlem, Manhattan, New York County, New York, 10037, United States"
3999,Adam Clayton Powell Blvd & W 138 St,40.81695971032464,-73.9422959089279,"The Rennie, 2351, Adam Clayton Powell Jr. Boulevard, Harlem, Manhattan, New York County, New York, 10030, United States"
4000,Lenox Ave & W 144 St,40.819783,-73.936521,"680, Malcolm X Boulevard, Harlem, Manhattan, New York County, New York, 10037, United States"
4001,Lenox Ave & W 146 St,40.821111,-73.935971,"West 146th Street & Esplanade Gardens Plaza, West 146th Street, Harlem, Manhattan, New York County, New York, 10039, United States"
4002,W 144 St & Adam Clayton Powell Blvd,40.820877,-73.939249,"153, West 144th Street, Harlem, Manhattan, New York County, New York, 10030, United States"
4004,Edgecombe Ave & W 141 St,40.820681,-73.945144,"P.S. 123, West 141st Street, Harlem, Manhattan, New York County, New York, 10031, United States"
4005,St. Nicholas Terrace & Convent Ave,40.821294,-73.947868,"The City College of New York, 160, Convent Avenue, Manhattan Community Board 9, Manhattan, New York County, New York, 10031, United States"
4007,Riverside Dr & W 138 St,40.823168,-73.955857,"Riverside Drive & West 139th Street, Riverside Drive, Hamilton Heights, Manhattan, New York County, New York, 10031, United States"
4009,Riverside Dr & W 145 St,40.827305,-73.951989,"680, Riverside Drive, Manhattan Community Board 9, Manhattan, New York County, New York, 10031, United States"
4010,W 145 St & Amsterdam Ave,40.825244,-73.947257,"West 145th Street & Amsterdam Avenue, West 145th Street, Manhattan Community Board 9, Manhattan, New York County, New York, 10031, United States"
4012,W 148 St & Amsterdam Ave,40.827075,-73.945909,"469, West 148th Street, Manhattan Community Board 9, Manhattan, New York County, New York, 10031, United States"
4013,Convent Ave & W 151 St,40.82831,-73.942924,"418, West 151st Street, Manhattan Community Board 9, Manhattan, New York County, New York, 10031, United States"
4014,Riverside Dr & W 148 St,40.829114,-73.950426,"710, Riverside Drive, Manhattan Community Board 9, Manhattan, New York County, New York, 10031, United States"
4015,W 155 St & Frederick Douglass Blvd,40.82923,-73.936996,"297, West 155th Street (surface), Harlem, Manhattan, New York County, New York, 10039, United States"
4016,Adam Clayton Powell Blvd & W 130 St,40.812346,-73.946168,"Adam Clayton Powell Jr Boulevard & West 130th Street, Adam Clayton Powell Jr. Boulevard, Harlem, Manhattan, New York County, New York, 10030, United States"
4017,E 138 St & 5 Av,40.81449,-73.936153,"138th Street & 5th Avenue, 5th Avenue, East Harlem, Manhattan Community Board 11, Manhattan, New York County, New York, 10037:10454, United States"
4018,Broadway & W 131 St,40.817555,-73.957163,"3261, Broadway, Manhattanville, Manhattan Community Board 9, Manhattan, New York County, New York, 10027, United States"
4020,Bradhurst Ave & W 148 St,40.825125,-73.941616,"116, Bradhurst Avenue, Harlem, Manhattan, New York County, New York, 10039, United States"
4023,Adam Clayton Powell Blvd & W 141 St,40.819241,-73.941057,"2412, Adam Clayton Powell Jr. Boulevard, Harlem, Manhattan, New York County, New York, 10030, United States"
4024,Macombs Pl & W 152 St,40.826406,-73.937948,"42, Macombs Place, Harlem, Manhattan, New York County, New York, 10039, United States"
4025,Edgecombe Ave & W 150 St,40.826881,-73.941427,"345, Edgecombe Avenue, Manhattan Community Board 9, Manhattan, New York County, New York, 10031, United States"
4027,St. Nicholas Ave & W 155 St,40.830663,-73.941323,"155th Street, West 154th Street, Manhattan Community Board 9, Manhattan, New York County, New York, 10032, United States"
4028,Frederick Douglass Blvd & Harlem River Dr,40.830702,-73.936371,"Frederick Douglass Boulevard & Harlem River Drive, Frederick Douglass Boulevard, Harlem, Manhattan, New York County, New York, 10039, United States"
4034,Hamilton Pl & W 138 St,40.821728,-73.952761,"30, Hamilton Place, Manhattan Community Board 9, Manhattan, New York County, New York, 10031, United States"
4035,Broadway & W 153 St,40.831327,-73.946665,"550, West 153rd Street, Hamilton Heights, Manhattan, New York County, New York, 10031, United States"
4036,Motorgate,40.7639089,-73.9477213,"Public School 217/Intermediate School 217, 645, Main Street, Manhattan Community Board 8, Manhattan, New York County, New York, 10044, United States"
4037,Roosevelt Island Tramway,40.757284,-73.9536,"Tram Bus Stop, East Main Street, Manhattan Community Board 8, Manhattan, New York County, New York, 10044, United States"
4038,Southpoint Park,40.75370225419114,-73.95865201950072,"Citi Bike - S Loop Rd / W Loop Rd, West Loop Road, Manhattan Community Board 8, Manhattan, New York County, New York, 11109, United States"
4040,Madison Ave & E 26 St,40.742684734875695,-73.98671329021454,"41, Madison Avenue, Flatiron District, Manhattan, New York County, New York, 10010, United States"
4041,Adam Clayton Powell Blvd & W 151 St,40.825289,-73.936232,"2589, Adam Clayton Powell Jr. Boulevard, Harlem, Manhattan, New York County, New York, 10039, United States"
4043,W 78 St & Amsterdam Ave,40.782535857724106,-73.97908508777618,"Citi Bike, West 78th Street, Upper West Side, Manhattan Community Board 7, Manhattan, New York County, New York, 10024, United States"
4044,8 Ave & W 38 St,40.75461,-73.99177,"554, 8th Avenue, Garment District, Manhattan Community Board 5, Manhattan, New York County, New York, 10018, United States"
4045,West End Ave & W 60 St,40.77237,-73.99005,"Citi Bike - West End Ave / W 60 St, West 60th Street, Upper West Side, Manhattan Community Board 7, Manhattan, New York County, New York, 100, United States"
4047,Amsterdam Ave & W 156 St,40.832081,-73.942386,"1943, Amsterdam Avenue, Manhattan Community Board 12, Manhattan, New York County, New York, 10032, United States"
4048,St. Nicholas Ave & W 157 St,40.832314,-73.94102,"462, West 157th Street, Manhattan Community Board 12, Manhattan, New York County, New York, 10032, United States"
4050,W 159 St & Edgecombe Ave,40.833303,-73.939326,"461, West 159th Street, Manhattan Community Board 12, Manhattan, New York County, New York, 10032, United States"
4051,W 160 St & St. Nicholas Ave,40.834468,-73.939865,"436, West 160th Street, Manhattan Community Board 12, Manhattan, New York County, New York, 10032, United States"
4052,Amsterdam Ave & W 162 St,40.83618,-73.939789,"1062, Saint Nicholas Avenue, Manhattan Community Board 12, Manhattan, New York County, New York, 10032, United States"
4053,W 163 St & Edgecombe Ave,40.835798,-73.937496,"420, West 163rd Street, Manhattan Community Board 12, Manhattan, New York County, New York, 10032, United States"
4054,W 163 St & Riverside Dr,40.839278,-73.945446,"664, West 163rd Street, Manhattan Community Board 12, Manhattan, New York County, New York, 10032, United States"
4055,W 165 St & Fort Washington Ave,40.84004,-73.942939,"130, Fort Washington Avenue, Manhattan Community Board 12, Manhattan, New York County, New York, 10032, United States"
4056,Broadway & W 165 St,40.839137,-73.941409,"Wendy's, 3939, Broadway, Manhattan Community Board 12, Manhattan, New York County, New York, 10032, United States"
4057,Amsterdam Ave & W 167 St,40.839443,-73.937044,"Public School 8, West 167th Street, Manhattan Community Board 12, Manhattan, New York County, New York, 10032, United States"
4058,Madison Av & E 51 St,40.75863,-73.97513,"Look Building, 488, Madison Avenue, Manhattan Community Board 5, Manhattan, New York County, New York, 10022, United States"
4059,W 171 St & St. Nicholas Ave,40.842941,-73.938631,"601, West 171st Street, Manhattan Community Board 12, Manhattan, New York County, New York, 10032, United States"
4060,Amsterdam Ave & W 172 St,40.842173,-73.935111,"2244, Amsterdam Avenue, Manhattan Community Board 12, Manhattan, New York County, New York, 10032, United States"
4061,Fort Washington Ave & W 173 St,40.84522,-73.940493,"300, Fort Washington Avenue, Manhattan Community Board 12, Manhattan, New York County, New York, 10032, United States"
4062,Amsterdam Ave & W 175 St,40.844044,-73.933651,"2306, Amsterdam Avenue, Manhattan Community Board 12, Manhattan, New York County, New York, 10033, United States"
4063,Wadsworth Ave & W 175 St,40.846052,-73.937648,"Northern Manhattan Improvement Corporation, 45, Wadsworth Avenue, Manhattan Community Board 12, Manhattan, New York County, New York, 10033, United States"
4065,Wadsworth Ave & W 179 St,40.848467,-73.936064,"111, Wadsworth Avenue, Washington Heights, Manhattan, New York County, New York, 10033, United States"
4066,Audobon Ave & W 179 St,40.847305,-73.933291,"278, Audubon Avenue, Washington Heights, Manhattan, New York County, New York, 10033, United States"
4067,Amsterdam Ave & W 180 St,40.847396,-73.931205,"New Croton Aqueduct Pump Station, Amsterdam Avenue, Washington Heights, Manhattan, New York County, New York, 10040, United States"
4068,Fort Washington Ave & W 183 St,40.852252,-73.937854,"181st Street, West 183rd Street, Manhattan Community Board 12, Manhattan, New York County, New York, 10033, United States"
4069,Cabrini Blvd & W 177 St,40.848282,-73.941343,"1, Cabrini Boulevard, Manhattan Community Board 12, Manhattan, New York County, New York, 10033, United States"
4070,W 180 St & Ft Washington Ave,40.849972,-73.938423,"725, West 180th Street, Manhattan Community Board 12, Manhattan, New York County, New York, 10033, United States"
4071,Broadway & W 160 St,40.835775,-73.9434,"555, West 160th Street, Manhattan Community Board 12, Manhattan, New York County, New York, 10032, United States"
4072,W 48 St & Rockefeller Plaza,40.75793646243674,-73.97960275411606,"28, West 48th Street, Midtown, Manhattan Community Board 5, Manhattan, New York County, New York, 10036, United States"
4073,W 51 St & Rockefeller Plaza,40.75969995906254,-73.97808194160461,"Rockefeller Center, 45, Rockefeller Plaza, Midtown, Manhattan Community Board 5, Manhattan, New York County, New York, 10111, United States"
4074,Edgecombe Ave & W 167 St,40.838191,-73.936085,"647, Edgecombe Avenue, Manhattan Community Board 12, Manhattan, New York County, New York, 10032, United States"
4075,Central Park West & W 85 St,40.78476,-73.969862,"Rossleigh Court, West 85th Street, Upper West Side, Manhattan Community Board 7, Manhattan, New York County, New York, 10024, United States"
4104,Old Broadway & W 133 St,40.818212,-73.955277,"94, Old Broadway, Manhattanville, Manhattan Community Board 9, Manhattan, New York County, New York, 10027, United States"
4109,Amsterdam Ave & W 183 St,40.84925,-73.93022,"Intermediate School 143, 511, West 182nd Street, Fort George, Manhattan Community Board 12, Manhattan, New York County, New York, 10033, United States"
4110,Avenue D & E 10 St,40.72506551015475,-73.97515833377838,"147, Avenue D, East Village, Manhattan Community Board 3, Manhattan, New York County, New York, 10009, United States"
4112,Wards Meadow Comfort Station,40.78294,-73.93077,"1, Wards Meadow Loop, Manhattan Community Board 11, Manhattan, New York County, New York, 10035, United States"
4113,Icahn Stadium,40.79346,-73.92389,"Randall's Island Field #10, Randalls Island Greenway, Manhattan Community Board 11, Manhattan, New York County, New York, 10454-4606, United States"
4114,Sunken Meadow Comfort Station,40.79558,-73.91906,"35, Central Road, Manhattan Community Board 11, Manhattan, New York County, New York, 10035, United States"
4115,Bronx Shore Comfort Station,40.80046,-73.92404,"Bronx Shore Fields, Bronx Shore Road, Manhattan Community Board 11, Manhattan, New York County, New York, 10454-4606, United States"
4118,Liberty St & Nassau St,40.70858894240581,-74.00935482235809,"Federal Reserve Bank of New York, 33, Liberty Street, Financial District, Manhattan Community Board 1, Manhattan, New York County, New York, 10045, United States"
4120,E 39 St & Lexington Ave,40.749498546025194,-73.97729203113158,"Citi Bike, East 39th Street, Murray Hill, Manhattan Community Board 6, Manhattan, New York County, New York, 10016, United States"
4121,1 Ave & E 39 St,40.74714,-73.97113,"Queens-Midtown Tunnel, Murray Hill, Manhattan Community Board 6, Manhattan, New York County, New York, 10017-6927, United States"
4122,Central Park W & W 97 St,40.79249519495111,-73.96417066463071,"96th Street, Central Park Outer Loop, Manhattan, New York County, New York, 10025, United States"
4123,Central Park W & W 103 St,40.79603684159984,-73.96158903853575,"103th Street, West 104th Street, Upper West Side, Manhattan Community Board 7, Manhattan, New York County, New York, 10025, United States"
4124,Central Park W & W 91 St,40.78866499127883,-73.96680057048798,"Central Park West & West 90th Street, Central Park Outer Loop, Manhattan, New York County, New York, 10025, United States"
4188,Broadway & W 155 St,40.83299,-73.94592,"Hispanic Society of America, West 155th Street, Manhattan Community Board 12, Manhattan, New York County, New York, 10032, United States"
4193,W 181 St & Riverside Dr,40.85168,-73.94186,"Lafayette Plaza, Hudson Heights, Manhattan, New York County, New York, 10033, United States"
4214,Spring St & Hudson St,40.72583996792375,-74.0076532959938,"303, Spring Street, Hudson Square, Manhattan Community Board 2, Manhattan, New York County, New York, 10013, United States"
4215,Hudson St & W 13 St,40.74005708567285,-74.0052741765976,"Troy, 675, Hudson Street, West Village, Manhattan Community Board 2, Manhattan, New York County, New York, 10014, United States"
4219,W 35 St & 9 Ave,40.75414519263519,-73.9960889518261,"400, West 35th Street, Garment District, Manhattan Community Board 4, Manhattan, New York County, New York, 10001, United States"
4220,Frederick Douglass Blvd & W 145 St,40.823061,-73.941928,"2727, Frederick Douglass Boulevard, Harlem, Manhattan, New York County, New York, 10039, United States"
4232,6 Ave & W 45 St,40.756951,-73.982631,"Americas Tower, 1177, 6th Avenue, Theater District, Manhattan Community Board 5, Manhattan, New York County, New York, 10019, United States"
4235,W 50 St & 10 Ave,40.764734200065185,-73.99194359779358,"Hudsonview Terrace, West 50th Street, Theater District, Manhattan Community Board 4, Manhattan, New York County, New York, 10019, United States"
4236,W 54 St & 11 Ave,40.768333,-73.992573,"560, West 54th Street, Manhattan Community Board 4, Manhattan, New York County, New York, 10019, United States"
4238,W 44 St & 11 Ave,40.762009,-73.996975,"Gotham West, 11th Avenue, Manhattan Community Board 4, Manhattan, New York County, New York, 10018, United States"
4239,E 50 St & Park Ave,40.757334,-73.974235,"Grand Central Terminal, Vanderbilt Avenue, Manhattan Community Board 5, Manhattan, New York County, New York, 10017, United States"
4247,Riverside Dr & W 153 St,40.832164,-73.949702,"Herman ‚ÄúDenny‚Äù Farrell Pedestrian Bridge, Hamilton Heights, Manhattan, New York County, New York, 10031, United States"
4248,Old Slip & South St,40.70336686695866,-74.007867872715,"100 Old Slip - New York City Police Museum, 100, Old Slip, Financial District, Manhattan Community Board 1, Manhattan, New York County, New York, 10005, United States"
4279,E 54 St & 1 Ave,40.756265,-73.964179,"citibike, East 54th Street, Manhattan Community Board 6, Manhattan, New York County, New York, 10022, United States"
4280,W 10 St & Washington St,40.73342399437081,-74.00851495563984,"277, West 10th Street, West Village, Manhattan Community Board 2, Manhattan, New York County, New York, 10014, United States"
4328,W 167 St & St. Nicholas Ave,40.840124,-73.93949,"Columbia University Irving Medical Center, 630, West 168th Street, Manhattan Community Board 12, Manhattan, New York County, New York, 10031, United States"
